LAT,LON,latFinal,lonFinal,SHIPNAME,shipName2,ship_type,shipType2,dateTimeInitial,dateTimeFinal,finalDistance,InitalDistance
54.79603,18.41764,54.79691,18.4361,.WLA-311,.WLA-311,Fishing,Fishing,2016-12-14T22:29:07Z,2016-12-14T22:35:07Z,1189,0
54.64667,19.91167,54.98167,20.35333,[SAT-AIS],[SAT-AIS],Tug,Tug,2016-12-13T19:35:03Z,2016-12-20T13:13:02Z,46833,0
55.6609,21.15353,55.67242,21.1419,100,100,Fishing,Fishing,2016-12-14T21:35:06Z,2016-12-19T06:15:06Z,1476,0
57.6711,11.84934,57.68029,11.86275,11-00,11-00,Tug,Tug,2016-12-14T16:31:07Z,2016-12-16T14:29:08Z,1298,0
55.6601,21.1533,55.74928,20.80286,169,169,Fishing,Fishing,2016-12-16T08:55:07Z,2016-12-20T07:15:12Z,24119,0
55.66103,21.15339,55.76449,20.80067,652,652,Fishing,Fishing,2016-12-15T09:15:06Z,2016-12-20T00:07:06Z,24938,0
55.65975,21.15242,55.74471,20.80649,694,694,Fishing,Fishing,2016-12-14T23:35:06Z,2016-12-19T02:29:07Z,23671,0
55.66101,21.15347,55.75016,20.81776,756,756,Fishing,Fishing,2016-12-15T01:39:06Z,2016-12-19T15:55:05Z,23278,0
57.6905,11.82133,57.6,11.64883,AALBORG,AALBORG,Tanker,Tanker,2016-12-13T14:31:05Z,2016-12-20T11:21:04Z,14391,0
55.73167,20.80166,54.67778,19.8056,ACQUAMARINA,ACQUAMARINA,Tanker,Tanker,2016-12-15T02:17:06Z,2016-12-18T16:01:03Z,133290,0
55.65793,21.15613,55.71969,20.8096,ADAMAS,ADAMAS,Cargo,Cargo,2016-12-13T21:31:06Z,2016-12-15T01:57:06Z,22806,0
57.6045,11.60083,57.60133,11.65733,ADELINA D,ADELINA D,Cargo,Cargo,2016-12-15T08:19:05Z,2016-12-15T19:31:06Z,3388,0
55.73211,20.80423,55.65137,21.15489,AFRICAN CENDANA,AFRICAN CENDANA,Cargo,Cargo,2016-12-17T10:55:06Z,2016-12-17T13:07:06Z,23767,0
54.68836,20.20378,55.72665,20.81032,AFRICAN GROUSE,AFRICAN GROUSE,Cargo,Cargo,2016-12-16T15:21:03Z,2016-12-20T01:33:06Z,121833,0
54.71771,18.99341,54.36544,18.65515,AGNESE,AGNESE,Fishing,Fishing,2016-12-16T09:13:01Z,2016-12-16T12:27:02Z,44888,0
55.73314,20.81371,55.71422,21.11545,AGOT,AGOT,Cargo,Cargo,2016-12-20T07:53:13Z,2016-12-20T09:51:13Z,19034,0
57.63749,11.60793,57.64405,11.85775,AHLMA,AHLMA,Fishing,Fishing,2016-12-20T10:13:04Z,2016-12-20T11:13:07Z,14902,0
55.65255,21.15538,54.67753,19.80137,AIGRAN D,AIGRAN D,Tanker,Tanker,2016-12-15T16:31:07Z,2016-12-20T03:55:02Z,138535,0
54.79734,18.91434,54.66417,19.83081,AKACIA,AKACIA,Cargo,Cargo,2016-12-15T11:31:02Z,2016-12-17T13:35:02Z,60745,0
59.9094,30.23148,59.92183,30.00053,AKADEMIK KARPINSKIY,AKADEMIK KARPINSKIY,Tug,Tug,2016-12-15T21:31:05Z,2016-12-15T22:53:04Z,12961,0
54.6654,19.80252,54.64431,19.87324,AKERDIJK,AKERDIJK,Cargo,Cargo,2016-12-20T13:43:02Z,2016-12-20T14:11:02Z,5124,0
59.90679,30.22124,59.89793,30.21679,AKMAL,AKMAL,Tug,Tug,2016-12-13T19:21:04Z,2016-12-20T12:11:04Z,1017,0
54.40041,18.71261,54.4017,18.74533,AKUL,AKUL,Tug,Tug,2016-12-13T14:31:02Z,2016-12-20T14:11:02Z,2125,0
59.89365,30.22073,59.88127,30.22787,ALANA,ALANA,Tanker,Tanker,2016-12-13T15:07:04Z,2016-12-19T19:37:04Z,1435,0
54.64688,19.80007,54.36395,18.66635,ALANA EVITA,ALANA EVITA,Cargo,Cargo,2016-12-16T03:33:03Z,2016-12-19T21:39:01Z,79759,0
59.91461,30.24029,59.92017,30.00867,ALEKSANDR GLUKHOV,ALEKSANDR GLUKHOV,Tanker,Tanker,2016-12-13T21:01:05Z,2016-12-19T00:07:04Z,12939,0
54.79177,18.88151,54.79756,18.89722,ALEXANDER B,ALEXANDER B,Cargo,Cargo,2016-12-14T13:37:02Z,2016-12-16T06:45:02Z,1197,0
59.88392,30.20605,59.92099,30.00402,ALLEGRA,ALLEGRA,Cargo,Cargo,2016-12-15T01:57:03Z,2016-12-17T00:51:05Z,12009,0
57.65069,11.83671,57.74795,11.60198,ALVSBORG,ALVSBORG,Fishing,Fishing,2016-12-19T10:13:06Z,2016-12-19T13:47:05Z,17669,0
57.7123,11.96332,57.70395,11.94071,ALVSNABBEN 3,ALVSNABBEN 3,Passenger,Passenger,2016-12-13T14:33:08Z,2016-12-17T20:39:07Z,1635,0
57.69341,11.9107,57.70189,11.92495,ALVSNABBEN 5,ALVSNABBEN 5,Passenger,Passenger,2016-12-13T14:33:08Z,2016-12-20T14:11:05Z,1269,0
54.79995,18.8784,54.52768,18.56001,AMARANTH,AMARANTH,Tanker,Tanker,2016-12-17T05:29:01Z,2016-12-20T01:25:06Z,36590,0
54.66767,19.81017,54.6335,19.92,AMBAL,AMBAL,Cargo,Cargo,2016-12-15T11:05:03Z,2016-12-20T13:03:02Z,8031,0
54.65942,19.80514,54.69382,20.43183,AMBER SPIRIT,AMBER SPIRIT,Cargo,Cargo,2016-12-19T12:13:03Z,2016-12-19T20:45:02Z,40517,0
54.635,19.88933,54.66405,19.82764,AMELAND,AMELAND,Cargo,Cargo,2016-12-18T16:11:02Z,2016-12-20T02:47:02Z,5123,0
54.63381,19.91802,54.67339,19.80553,AMERDIJK,AMERDIJK,Cargo,Cargo,2016-12-13T21:13:03Z,2016-12-13T21:47:03Z,8479,0
57.67348,11.78559,57.68895,11.8695,AMUR STAR,AMUR STAR,Tanker,Tanker,2016-12-13T14:59:05Z,2016-12-13T15:39:10Z,5282,0
57.9138,11.62026,57.99829,11.76232,ANDALUCIA STAR,ANDALUCIA STAR,Cargo,Cargo,2016-12-15T01:45:07Z,2016-12-15T02:15:06Z,12604,0
55.72575,20.81072,55.85931,20.80062,ANETTA,ANETTA,Cargo,Cargo,2016-12-16T13:37:10Z,2016-12-17T16:05:05Z,14881,0
54.79896,18.93523,54.37407,18.65829,ANGLIA SEAWAYS,ANGLIA SEAWAYS,Cargo,Cargo,2016-12-20T04:59:02Z,2016-12-20T09:39:02Z,50560,0
57.6013,11.69452,57.60418,11.65953,ANGON,ANGON,Tanker,Tanker,2016-12-13T20:59:07Z,2016-12-20T06:57:05Z,2111,0
55.70655,20.80155,55.64685,21.16004,ANGORA,ANGORA,Cargo,Cargo,2016-12-15T11:31:06Z,2016-12-16T21:53:07Z,23463,0
57.612,11.62717,57.603,11.624,ANNAMARIE,ANNAMARIE,Cargo,Cargo,2016-12-15T09:31:05Z,2016-12-16T01:05:06Z,1020,0
54.79731,18.44141,54.79635,18.4181,APHRODITE I,APHRODITE I,Tug,Tug,2016-12-20T02:23:14Z,2016-12-20T03:29:06Z,1500,0
54.79899,18.90197,54.38774,18.71918,APL MERLION,APL MERLION,Cargo,Cargo,2016-12-19T20:39:02Z,2016-12-20T00:13:01Z,47274,0
57.62513,11.80192,57.6619,11.8447,AQUILA,AQUILA,Pleasure,Pleasure,2016-12-13T14:31:05Z,2016-12-20T09:39:08Z,4822,0
54.6899,20.37788,55.73776,20.80654,ARA ROTTERDAM,ARA ROTTERDAM,Cargo,Cargo,2016-12-14T13:09:02Z,2016-12-16T13:17:06Z,119781,0
54.40167,18.72071,54.39941,18.69569,ARES,ARES,Tug,Tug,2016-12-13T14:53:02Z,2016-12-20T10:05:02Z,1641,0
54.52544,18.99381,54.39301,18.71282,ARETHOUSA,ARETHOUSA,Cargo,Cargo,2016-12-14T13:33:02Z,2016-12-16T17:25:02Z,23408,0
54.79733,18.92387,54.79763,18.90078,ARION,ARION,Cargo,Cargo,2016-12-16T21:47:02Z,2016-12-18T04:21:02Z,1482,0
57.6444,11.83776,57.61827,11.79822,ARLAN,ARLAN,Passenger,Passenger,2016-12-13T14:31:05Z,2016-12-20T13:59:05Z,3744,0
57.99473,11.70695,57.91456,11.61929,ASIAN BREEZE,ASIAN BREEZE,Cargo,Cargo,2016-12-13T17:11:05Z,2016-12-13T17:45:05Z,10318,0
54.79869,18.92491,54.37461,18.65816,ASKOE,ASKOE,Cargo,Cargo,2016-12-14T21:17:02Z,2016-12-19T18:51:02Z,50246,0
57.61559,11.6051,57.99827,12.12658,ASPEN,ASPEN,Cargo,Cargo,2016-12-16T06:35:05Z,2016-12-16T13:59:08Z,52643,0
55.66006,21.14284,55.73552,20.80517,ATHENA SEAWAYS,ATHENA SEAWAYS,Passenger,Passenger,2016-12-13T22:21:06Z,2016-12-19T23:01:06Z,22788,0
55.6599,21.15206,55.75426,20.80728,ATLANT,ATLANT,Fishing,Fishing,2016-12-15T01:03:07Z,2016-12-18T22:51:06Z,24041,0
59.91882,30.01451,59.90299,30.22435,ATLANTIC NAVIGATORII,ATLANTIC NAVIGATORII,Cargo,Cargo,2016-12-17T17:29:04Z,2016-12-19T22:41:04Z,11843,0
59.89577,30.22295,59.9148,30.25021,ATLANTIC RUNNER,ATLANTIC RUNNER,Cargo,Cargo,2016-12-14T17:23:04Z,2016-12-14T19:23:04Z,2608,0
54.67112,19.80424,54.69703,20.44008,ATLANTIDA,ATLANTIDA,Fishing,Fishing,2016-12-15T01:49:03Z,2016-12-15T04:39:02Z,41019,0
54.5324,18.55533,54.67879,18.99666,ATROTOS HERACLES,ATROTOS HERACLES,Cargo,Cargo,2016-12-17T08:45:07Z,2016-12-17T10:55:02Z,32791,0
59.87709,30.23734,59.88211,30.19053,AURA,AURA,Tanker,Tanker,2016-12-14T19:01:03Z,2016-12-20T06:11:03Z,2674,0
59.8904,30.23295,59.92108,30.00289,AUTO BAY,AUTO BAY,Cargo,Cargo,2016-12-14T19:41:03Z,2016-12-14T20:43:05Z,13288,0
59.91419,30.23209,59.92093,30.00395,AUTUMN WAVE,AUTUMN WAVE,Cargo,Cargo,2016-12-19T11:13:04Z,2016-12-19T12:45:05Z,12752,0
59.91896,30.01413,59.90705,30.22201,AVELONA STAR,AVELONA STAR,Cargo,Cargo,2016-12-17T05:43:03Z,2016-12-17T07:29:05Z,11676,0
57.60215,11.66728,57.61476,11.60411,B GAS CHAMPION,B GAS CHAMPION,Tanker,Tanker,2016-12-18T22:03:05Z,2016-12-19T17:59:06Z,4020,0
55.72968,20.80313,55.884,20.80115,BALDER,BALDER,Cargo,Cargo,2016-12-17T15:57:06Z,2016-12-19T22:01:06Z,17179,0
59.92179,30.00057,59.91063,30.22342,BALTIC HEATHER,BALTIC HEATHER,Cargo,Cargo,2016-12-20T05:07:04Z,2016-12-20T14:11:04Z,12497,0
59.91949,30.01143,59.86857,30.22084,BALTIC PATRIOT,BALTIC PATRIOT,Cargo,Cargo,2016-12-18T08:39:03Z,2016-12-18T09:49:04Z,12995,0
59.92067,30.0055,59.9065,30.229,BALTIC PERFORMER,BALTIC PERFORMER,Cargo,Cargo,2016-12-13T18:21:03Z,2016-12-13T19:51:05Z,12572,0
59.92031,30.00721,59.8695,30.217,BALTIC PIONEER,BALTIC PIONEER,Cargo,Cargo,2016-12-20T07:59:04Z,2016-12-20T09:19:04Z,13008,0
59.90806,30.22255,59.89651,30.22404,BALTIC PRIME,BALTIC PRIME,Cargo,Cargo,2016-12-18T18:15:03Z,2016-12-18T20:45:05Z,1288,0
54.52075,18.55324,57.60196,11.66059,BALTICA,BALTICA,Fishing,Cargo,2016-12-15T09:43:06Z,2016-12-19T17:59:06Z,548332,0
54.79789,18.9137,54.4409,18.64647,BALTICA HAV,BALTICA HAV,Cargo,Cargo,2016-12-19T11:01:02Z,2016-12-20T12:05:06Z,43312,0
54.79436,18.98823,54.79784,18.97246,BALTICO,BALTICO,Tanker,Tanker,2016-12-16T05:37:02Z,2016-12-19T08:05:02Z,1084,0
54.79875,18.76379,54.70267,18.92023,BALTIYSKIY-202,BALTIYSKIY-202,Cargo,Cargo,2016-12-14T19:13:02Z,2016-12-20T14:11:02Z,14677,0
54.96674,20.2634,54.95827,20.36507,BARRAKUDA,BARRAKUDA,Pleasure,Pleasure,2016-12-16T19:07:02Z,2016-12-17T13:55:03Z,6566,0
54.6673,19.81522,55.13744,19.81967,BEATA,BEATA,Cargo,Cargo,2016-12-15T16:41:03Z,2016-12-16T22:13:02Z,52337,0
59.87431,30.1998,59.92099,30.00478,BELBEK,BELBEK,Cargo,Cargo,2016-12-13T21:01:05Z,2016-12-15T13:09:05Z,12065,0
54.68453,20.16943,54.69712,20.44023,BERGEN T,BERGEN T,Tanker,Tanker,2016-12-13T16:03:03Z,2016-12-20T01:43:03Z,17480,0
59.86744,30.22303,59.92047,30.00676,BESIKTAS HALLAND,BESIKTAS HALLAND,Tanker,Tanker,2016-12-15T12:41:05Z,2016-12-15T13:55:05Z,13442,0
57.66349,11.77922,57.60862,11.6094,BESIKTAS ICELAND,BESIKTAS ICELAND,Tanker,Tanker,2016-12-13T14:31:05Z,2016-12-16T17:49:06Z,11820,0
59.92039,30.00623,59.87123,30.20788,BF FORTALEZA,BF FORTALEZA,Cargo,Cargo,2016-12-19T17:25:03Z,2016-12-20T07:31:04Z,12519,0
55.79399,20.87181,55.75792,20.81335,BIRGIT KNUTSEN,BIRGIT KNUTSEN,Tanker,Tanker,2016-12-13T14:35:06Z,2016-12-16T01:17:06Z,5433,0
55.72855,20.8095,55.71047,21.11814,BIRYUZA,BIRYUZA,Cargo,Cargo,2016-12-18T01:27:07Z,2016-12-18T02:49:06Z,19456,0
57.67175,11.60706,57.68043,11.64594,BISCAYA GG34,BISCAYA GG34,Fishing,Fishing,2016-12-20T11:19:05Z,2016-12-20T14:11:05Z,2508,0
54.63077,20.02911,54.69693,20.44025,BIZON-O-158,BIZON-O-158,Tug,Tug,2016-12-18T15:53:03Z,2016-12-19T14:21:02Z,27476,0
55.71882,21.1091,55.73839,20.81072,BLUE CHIP,BLUE CHIP,Cargo,Cargo,2016-12-15T18:29:06Z,2016-12-15T19:45:08Z,18831,0
59.92023,30.00749,59.87986,30.18809,BLUEBILL,BLUEBILL,Cargo,Cargo,2016-12-18T18:21:03Z,2016-12-18T23:31:05Z,11039,0
54.79976,18.89219,54.38745,18.66509,BOA ODIN,BOA ODIN,Tug,Tug,2016-12-19T01:45:02Z,2016-12-19T09:09:02Z,48178,0
54.78593,18.98923,54.79767,18.98398,BOGDAN,BOGDAN,Cargo,Cargo,2016-12-14T13:09:01Z,2016-12-14T13:15:02Z,1350,0
59.92053,30.00579,59.88157,30.19671,BOMAR VALOUR,BOMAR VALOUR,Cargo,Cargo,2016-12-18T17:21:04Z,2016-12-19T23:13:13Z,11507,0
59.88051,30.19958,59.92179,30.00003,BOMAR VANQUISH,BOMAR VANQUISH,Cargo,Cargo,2016-12-13T20:23:03Z,2016-12-13T21:51:04Z,12051,0
54.79747,18.95949,54.37097,18.66355,BOOTES,BOOTES,Fishing,Fishing,2016-12-19T01:25:02Z,2016-12-20T12:49:02Z,51172,0
55.73169,20.80107,55.73625,20.81652,BOTNIA SEAWAYS,BOTNIA SEAWAYS,Cargo,Cargo,2016-12-15T04:17:07Z,2016-12-18T22:09:06Z,1093,0
59.86613,30.22632,59.91804,30.01862,BREST,BREST,Tug,Tug,2016-12-13T21:59:04Z,2016-12-20T13:33:04Z,12958,0
55.73905,20.8082,55.87283,20.8003,BRIGGA,BRIGGA,Cargo,Cargo,2016-12-16T00:31:06Z,2016-12-19T01:15:06Z,14901,0
59.92097,30.00367,59.89753,30.21758,BRIN NAVOLOK,BRIN NAVOLOK,Cargo,Cargo,2016-12-19T19:11:12Z,2016-12-19T20:29:04Z,12221,0
54.79631,18.42359,54.79707,18.43922,BRYZA,BRYZA,Tug,Tug,2016-12-14T13:09:07Z,2016-12-19T16:21:14Z,1007,0
59.91917,30.0135,54.444,18.83933,CALISTO,CALISTO,Cargo,Cargo,2016-12-16T05:41:03Z,2016-12-19T06:57:02Z,906713,0
57.60398,11.66622,57.98871,12.1271,CAROLINA,CAROLINA,Cargo,Cargo,2016-12-20T07:29:13Z,2016-12-20T13:33:07Z,50811,0
54.53745,18.52411,54.52525,18.54959,CATHARINA SCHULTE,CATHARINA SCHULTE,Cargo,Cargo,2016-12-16T15:29:09Z,2016-12-19T08:39:07Z,2134,0
54.53467,18.54467,54.79984,18.624,CENTAUR II,CENTAUR II,Tug,Tug,2016-12-13T23:51:07Z,2016-12-20T05:47:01Z,29957,0
57.99308,11.75258,57.72009,11.97661,CHARLIE,CHARLIE,Tug,Tug,2016-12-13T15:13:06Z,2016-12-19T10:31:08Z,33159,0
59.92013,30.00734,59.88233,30.18917,CHARLOTTA B,CHARLOTTA B,Cargo,Cargo,2016-12-20T07:29:03Z,2016-12-20T08:23:04Z,10988,0
59.88253,30.19258,59.92064,30.006,CHRISTOPHER,CHRISTOPHER,Cargo,Cargo,2016-12-14T19:47:04Z,2016-12-15T13:33:04Z,11247,0
59.86918,30.21508,59.92117,30.00332,CITY OF ROTTERDAM,CITY OF ROTTERDAM,Cargo,Cargo,2016-12-13T23:53:04Z,2016-12-14T00:47:04Z,13164,0
57.92059,11.60725,57.99886,11.76283,CLIPPER HARALD,CLIPPER HARALD,Tanker,Tanker,2016-12-20T05:33:05Z,2016-12-20T06:13:04Z,12662,0
57.60583,11.60567,57.6,11.645,CLIPPERTON,CLIPPERTON,Fishing,Fishing,2016-12-14T19:23:05Z,2016-12-14T19:31:05Z,2434,0
55.82267,20.809,55.64617,21.16067,CONTAINERSHIPS 6,CONTAINERSHIPS 6,Cargo,Cargo,2016-12-13T20:05:06Z,2016-12-13T21:53:06Z,29527,0
55.86841,20.8048,55.7377,20.80008,CONTAINERSHIPS VII,CONTAINERSHIPS VII,Cargo,Cargo,2016-12-18T08:23:07Z,2016-12-18T19:57:06Z,14554,0
57.92107,11.60666,57.99143,11.7556,CORAL MEANDRA,CORAL MEANDRA,Tanker,Tanker,2016-12-19T16:35:04Z,2016-12-19T17:17:05Z,11778,0
59.88281,30.18202,59.92042,30.00746,CPO GERMANY,CPO GERMANY,Tanker,Tanker,2016-12-15T12:19:03Z,2016-12-15T13:07:04Z,10606,0
57.67277,11.78385,57.6831,11.84822,DANA,DANA,Tanker,Tanker,2016-12-14T14:23:05Z,2016-12-20T13:33:07Z,4000,0
54.72464,18.99871,54.79902,18.43077,DAR-10,DAR-10,Fishing,Fishing,2016-12-13T14:57:02Z,2016-12-15T02:55:07Z,37406,0
55.66179,21.15283,55.71982,21.10207,DARIUS,DARIUS,Fishing,Fishing,2016-12-15T10:09:07Z,2016-12-16T13:31:06Z,7202,0
55.7469,20.81007,55.78485,20.8718,DAVINO D,DAVINO D,Tanker,Tanker,2016-12-19T16:13:06Z,2016-12-20T05:37:06Z,5726,0
54.79489,18.88261,54.79576,18.80287,DC OSTEND,DC OSTEND,Tug,Tug,2016-12-14T17:45:02Z,2016-12-20T08:45:01Z,5118,0
59.87439,30.19685,54.67282,19.80347,DELPHIS BOTHNIA,DELPHIS BOTHNIA,Cargo,Cargo,2016-12-16T11:17:04Z,2016-12-20T09:21:03Z,850619,0
54.68484,20.26613,54.69368,20.43106,DEYMA,DEYMA,Tanker,Tanker,2016-12-13T14:31:03Z,2016-12-19T00:01:02Z,10658,0
55.65012,21.15996,55.83656,20.80832,DIJKSGRACHT,DIJKSGRACHT,Cargo,Cargo,2016-12-14T19:05:07Z,2016-12-18T16:51:06Z,30270,0
54.68568,20.22524,54.67635,19.80311,DINTELBORG,DINTELBORG,Cargo,Cargo,2016-12-13T15:27:03Z,2016-12-16T02:51:03Z,27187,0
59.90869,30.06429,59.91237,30.23853,DMITRY SIROTKIN,DMITRY SIROTKIN,Tug,Tug,2016-12-13T14:31:04Z,2016-12-17T18:09:04Z,9733,0
54.79873,18.93407,54.39277,18.67145,DONGEBORG,DONGEBORG,Cargo,Cargo,2016-12-14T13:43:02Z,2016-12-16T00:27:02Z,48261,0
54.53712,18.53767,54.79971,18.75241,DORNUM,DORNUM,Cargo,Cargo,2016-12-15T17:11:06Z,2016-12-15T21:37:08Z,32335,0
57.92898,11.62494,57.71181,11.6673,DROTT AF DYRON,DROTT AF DYRON,Passenger,Passenger,2016-12-15T12:23:05Z,2016-12-20T14:11:05Z,24305,0
57.66115,11.84354,57.64431,11.84731,DT BROSON,DT BROSON,Cargo,Cargo,2016-12-14T13:09:05Z,2016-12-20T09:47:08Z,1888,0
57.66208,11.84556,57.60503,11.79437,DT SUPPLY,DT SUPPLY,Pleasure,Pleasure,2016-12-14T13:21:06Z,2016-12-14T21:11:06Z,7045,0
54.95371,19.80363,54.96886,20.3695,DUKE 2,DUKE 2,Tug,Tug,2016-12-18T00:37:03Z,2016-12-20T14:11:02Z,36205,0
59.90742,30.22215,59.9208,30.00516,DURBAN STAR,DURBAN STAR,Cargo,Cargo,2016-12-17T00:09:04Z,2016-12-17T01:59:04Z,12200,0
54.79602,18.42591,54.79985,18.44069,DZI-92 ATILIUS,DZI-92 ATILIUS,Fishing,Fishing,2016-12-15T06:43:07Z,2016-12-20T07:11:13Z,1040,0
54.79567,18.41667,54.79917,18.45667,DZI 85,DZI 85,Fishing,Fishing,2016-12-15T06:29:06Z,2016-12-20T07:15:13Z,2596,0
59.92017,30.00642,59.88695,30.2007,E.R. VISBY,E.R. VISBY,Cargo,Cargo,2016-12-20T06:55:03Z,2016-12-20T08:05:04Z,11458,0
54.51579,18.99702,54.46273,18.99599,ECO GREEN,ECO GREEN,Tanker,Tanker,2016-12-17T19:59:02Z,2016-12-19T23:27:02Z,5907,0
54.5345,18.8415,54.53,18.80567,EILEEN MCLOUGHLIN,EILEEN MCLOUGHLIN,Tug,Tug,2016-12-14T02:37:02Z,2016-12-17T17:45:02Z,2368,0
59.922,30.0005,59.87879,30.19019,EIRA,EIRA,Cargo,Cargo,2016-12-16T04:55:03Z,2016-12-20T11:55:04Z,11631,0
57.60242,11.65856,57.68903,11.86927,EK-STAR,EK-STAR,Tanker,Tanker,2016-12-17T10:35:05Z,2016-12-20T07:53:15Z,15828,0
57.99507,12.12761,59.91912,30.01337,EKEN,EKEN,Cargo,Tanker,2016-12-15T08:53:07Z,2016-12-18T21:59:04Z,1045400,0
59.92167,30.00067,59.86767,30.22217,EKFORS,EKFORS,Tanker,Tanker,2016-12-20T05:29:03Z,2016-12-20T06:55:03Z,13751,0
59.87985,30.22321,59.92109,30.00398,ELBRUS,ELBRUS,Tug,Tug,2016-12-13T21:17:04Z,2016-12-15T13:39:04Z,13072,0
54.6609,20.12273,54.69726,20.44097,ELENA,ELENA,Tug,Tug,2016-12-14T14:23:02Z,2016-12-18T19:27:03Z,20878,0
57.60346,11.66431,57.60392,11.64223,ELISALEX SCHULTE,ELISALEX SCHULTE,Tanker,Tanker,2016-12-18T12:51:05Z,2016-12-19T16:41:05Z,1318,0
54.7935,18.8507,55.88503,20.80621,EMOTION,EMOTION,Cargo,Cargo,2016-12-14T20:07:02Z,2016-12-16T15:03:07Z,173456,0
57.77058,11.62293,57.72721,11.66791,ENSKAR,ENSKAR,Fishing,Fishing,2016-12-14T15:41:05Z,2016-12-20T12:11:05Z,5518,0
57.74771,11.61491,57.68037,11.64559,EROS AV HONO,EROS AV HONO,Fishing,Fishing,2016-12-14T19:47:06Z,2016-12-15T20:21:05Z,7715,0
55.00977,20.00268,55.00753,20.33859,ERRIE,ERRIE,Tug,Tug,2016-12-18T05:45:03Z,2016-12-20T12:11:03Z,21445,0
55.84693,20.80334,55.66548,21.14688,ESL AFRICA,ESL AFRICA,Cargo,Cargo,2016-12-19T22:37:06Z,2016-12-20T00:51:06Z,29514,0
57.6048,11.66202,57.68168,11.78758,EURONIKE,EURONIKE,Tanker,Tanker,2016-12-19T23:35:05Z,2016-12-20T00:45:13Z,11367,0
59.91944,30.01161,59.86923,30.21525,EYSTNES,EYSTNES,Cargo,Cargo,2016-12-19T17:51:03Z,2016-12-19T19:51:04Z,12670,0
54.67233,19.80203,54.664,19.84617,FALKBRIS,FALKBRIS,Cargo,Cargo,2016-12-15T16:17:03Z,2016-12-19T18:35:03Z,2989,0
57.99277,11.74463,57.77323,11.61716,FATBOY,FATBOY,Tug,Tug,2016-12-15T15:13:05Z,2016-12-19T17:55:05Z,25577,0
57.60233,11.61917,57.60415,11.60035,FAUST,FAUST,Cargo,Cargo,2016-12-15T00:01:06Z,2016-12-16T00:47:05Z,1141,0
59.92165,30.00054,59.89286,30.21082,FEDERAL CEDAR,FEDERAL CEDAR,Cargo,Cargo,2016-12-19T17:19:04Z,2016-12-19T18:27:04Z,12167,0
59.92067,30.00535,59.89317,30.22035,FEHN POLLUX,FEHN POLLUX,Cargo,Cargo,2016-12-20T08:23:03Z,2016-12-20T09:39:04Z,12385,0
57.60984,11.62047,57.69031,11.83235,FICARIA SEAWAYS,FICARIA SEAWAYS,Cargo,Cargo,2016-12-15T08:53:07Z,2016-12-18T17:49:08Z,15477,0
54.79417,18.98117,54.53717,18.68067,FINNKRAFT,FINNKRAFT,Cargo,Cargo,2016-12-13T14:31:02Z,2016-12-20T14:11:02Z,34536,0
59.89145,30.21489,59.92145,30.002,FINNMILL,FINNMILL,Cargo,Cargo,2016-12-15T00:09:03Z,2016-12-15T12:59:04Z,12343,0
54.79844,18.90738,54.38069,18.65907,FINNPULP,FINNPULP,Cargo,Cargo,2016-12-19T08:51:02Z,2016-12-19T12:17:01Z,49184,0
59.92068,30.00563,59.89096,30.21496,FINNTIDE,FINNTIDE,Cargo,Cargo,2016-12-20T05:37:03Z,2016-12-20T06:51:04Z,12144,0
59.89417,30.227,59.91117,30.22683,FLANDRIYA,FLANDRIYA,Tanker,Tanker,2016-12-14T22:07:03Z,2016-12-18T03:29:05Z,1892,0
54.68553,20.17413,54.66815,19.81751,FOREST,FOREST,Cargo,Cargo,2016-12-15T20:47:03Z,2016-12-15T22:23:03Z,23035,0
55.72025,20.80397,55.74478,20.8171,FORSETI,FORSETI,Cargo,Cargo,2016-12-16T12:13:06Z,2016-12-17T23:35:06Z,2852,0
55.00909,20.23728,55.00891,20.33489,FORTUNA,FORTUNA,Tug,Tug,2016-12-18T07:51:02Z,2016-12-19T18:33:03Z,6231,0
57.68647,11.86909,57.61375,11.61477,FOX LUNA,FOX LUNA,Tanker,Tanker,2016-12-13T14:31:05Z,2016-12-17T01:57:05Z,17176,0
57.60073,11.81971,57.60072,11.66118,FOX SUNRISE,FOX SUNRISE,Tanker,Tanker,2016-12-15T11:05:06Z,2016-12-17T03:07:06Z,9456,0
57.69012,11.83194,57.68373,11.87053,FRAM,FRAM,Tanker,Tanker,2016-12-13T14:41:06Z,2016-12-20T11:57:15Z,2404,0
54.52158,18.54991,54.79831,18.59687,FRANEK ZUBRZYCKI,FRANEK ZUBRZYCKI,Fishing,Fishing,2016-12-14T13:35:07Z,2016-12-15T20:21:07Z,30953,0
57.74825,11.60701,57.70617,11.65935,FRANKLIN,FRANKLIN,Tug,Tug,2016-12-16T10:03:05Z,2016-12-16T10:43:06Z,5623,0
54.79932,18.72215,55.72737,20.80882,FREDERIK,FREDERIK,Cargo,Cargo,2016-12-16T08:53:01Z,2016-12-18T06:03:06Z,167892,0
59.91389,30.22878,59.86861,30.21969,FREYA,FREYA,Tanker,Tanker,2016-12-13T22:53:04Z,2016-12-19T23:53:04Z,5066,0
54.53363,18.52475,54.79827,18.63283,FRI OCEAN,FRI OCEAN,Cargo,Cargo,2016-12-13T14:43:07Z,2016-12-13T22:21:06Z,30270,0
59.91962,30.011,59.8817,30.2249,FRI PORSGRUNN,FRI PORSGRUNN,Cargo,Cargo,2016-12-14T17:51:04Z,2016-12-20T11:17:04Z,12665,0
55.7095,20.80667,55.73133,20.80033,FRI STREAM,FRI STREAM,Cargo,Cargo,2016-12-15T10:21:06Z,2016-12-17T02:13:06Z,2462,0
55.72142,20.80125,55.87295,20.80098,FRIGGA,FRIGGA,Cargo,Cargo,2016-12-14T22:57:06Z,2016-12-19T02:31:06Z,16868,0
57.71892,11.97887,57.60081,11.82002,FROG CYGNUS,FROG CYGNUS,Unspecified,Unspecified,2016-12-13T14:31:05Z,2016-12-16T22:51:07Z,16197,0
54.30413,18.99821,54.27174,18.94649,FULDA,FULDA,Unspecified,Unspecified,2016-12-19T09:59:01Z,2016-12-20T14:11:02Z,4929,0
57.69115,11.87072,57.60291,11.60809,FURE FLADEN,FURE FLADEN,Tanker,Tanker,2016-12-14T03:39:06Z,2016-12-14T04:47:05Z,18473,0
55.71021,21.12295,55.742,20.80072,GALAN,GALAN,Cargo,Cargo,2016-12-14T20:11:05Z,2016-12-14T22:11:07Z,20508,0
57.60073,11.82022,57.60049,11.79057,GANTHI,GANTHI,Fishing,Fishing,2016-12-13T20:15:05Z,2016-12-20T08:33:05Z,1769,0
59.87529,30.19519,59.88241,30.22341,GAZPROMNEFT EAST,GAZPROMNEFT EAST,Tanker,Tanker,2016-12-13T14:33:03Z,2016-12-20T14:11:04Z,1764,0
59.88401,30.22435,59.92037,30.00703,GAZPROMNEFT WEST,GAZPROMNEFT WEST,Tanker,Tanker,2016-12-14T18:37:04Z,2016-12-17T23:27:04Z,12789,0
54.56963,18.9956,54.79792,18.91948,GDA-18,GDA-18,Fishing,Fishing,2016-12-13T17:27:02Z,2016-12-20T09:13:01Z,25881,0
54.50251,18.99321,54.79945,18.81877,GDA-20,GDA-20,Fishing,Fishing,2016-12-13T21:51:02Z,2016-12-19T05:53:02Z,34912,0
55.71262,20.83478,55.71517,20.86193,GENCO RELIANCE,GENCO RELIANCE,Cargo,Cargo,2016-12-19T15:59:06Z,2016-12-20T02:39:14Z,1726,0
54.53211,18.5383,54.79792,18.96247,GENCO THUNDER,GENCO THUNDER,Cargo,Cargo,2016-12-15T21:29:11Z,2016-12-16T00:13:01Z,40266,0
59.92063,30.00505,59.8716,30.21319,GEOR.POBEDONOSETS,GEOR.POBEDONOSETS,Cargo,Cargo,2016-12-19T07:21:03Z,2016-12-19T09:07:04Z,12839,0
57.67323,11.66491,57.66278,11.60466,GG 391 ELISABETH,GG 391 ELISABETH,Fishing,Fishing,2016-12-15T09:13:06Z,2016-12-15T09:35:06Z,3771,0
57.74808,11.61177,57.77272,11.61802,GG32 TRISTAN,GG32 TRISTAN,Fishing,Fishing,2016-12-14T22:35:05Z,2016-12-19T22:43:12Z,2768,0
57.61475,11.74969,57.62175,11.76385,GG75 MANILL,GG75 MANILL,Fishing,Fishing,2016-12-13T14:31:05Z,2016-12-16T16:57:05Z,1149,0
57.604,11.6605,57.61083,11.60033,GIJON KNUTSEN,GIJON KNUTSEN,Tanker,Tanker,2016-12-18T06:41:05Z,2016-12-19T11:37:06Z,3668,0
57.6672,11.8494,57.62733,11.83119,GKSS-ONLINE,GKSS-ONLINE,Tug,Tug,2016-12-15T10:09:06Z,2016-12-18T17:11:08Z,4569,0
54.69709,20.44048,54.68972,20.37531,GLADIATOR,GLADIATOR,Tug,Tug,2016-12-14T18:31:04Z,2016-12-17T14:55:02Z,4272,0
54.93921,20.36909,55.00803,20.34105,GLADIUS,GLADIUS,Tug,Tug,2016-12-15T12:11:02Z,2016-12-20T13:57:02Z,7868,0
54.5104,18.70802,54.52425,18.5592,GLOMAR WAVE,GLOMAR WAVE,Passenger,Passenger,2016-12-14T17:37:01Z,2016-12-17T16:05:06Z,9739,0
59.89206,30.23553,59.877,30.22198,GOGLAND,GOGLAND,Tanker,Tanker,2016-12-14T17:49:04Z,2016-12-19T23:31:11Z,1839,0
57.70633,11.69504,57.70121,11.677,GOTA,GOTA,Passenger,Passenger,2016-12-13T14:31:05Z,2016-12-20T14:11:05Z,1215,0
57.60018,11.78975,57.61791,11.80012,GOTA II,GOTA II,Passenger,Passenger,2016-12-13T14:31:05Z,2016-12-20T14:11:05Z,2068,0
55.74647,20.80385,55.67542,20.80037,GRAND,GRAND,Cargo,Cargo,2016-12-16T07:23:06Z,2016-12-17T22:13:06Z,7912,0
54.40863,18.65972,54.79766,18.91004,GREEN MALOY,GREEN MALOY,Cargo,Cargo,2016-12-14T00:49:02Z,2016-12-14T03:11:02Z,46217,0
55.79244,20.84471,55.86344,20.80271,GREEN PLANET,GREEN PLANET,Tanker,Tanker,2016-12-13T14:31:07Z,2016-12-16T09:09:08Z,8329,0
59.909910000000004,30.05895,59.87802,30.23683,GRIFON7,GRIFON7,Tug,Tug,2016-12-13T14:31:04Z,2016-12-20T08:37:04Z,10548,0
54.794670000000004,18.91014,54.46363,18.99739,HAFNIA SOYA,HAFNIA SOYA,Tanker,Tanker,2016-12-15T13:41:02Z,2016-12-17T15:41:01Z,37278,0
54.38745,18.67103,54.79735,18.41877,HALICZ,HALICZ,Tanker,Tanker,2016-12-13T20:53:02Z,2016-12-20T11:07:07Z,48444,0
57.693600000000004,11.91294,57.70695,11.95637,HAMNEN,HAMNEN,Passenger,Passenger,2016-12-13T16:11:05Z,2016-12-20T13:27:07Z,2980,0
57.60524,11.609680000000001,57.60037,11.65048,HANNE THERESA,HANNE THERESA,Tanker,Tanker,2016-12-15T07:55:05Z,2016-12-15T08:03:05Z,2493,0
55.71723,21.1121,55.88805,20.80223,HAUKUR,HAUKUR,Cargo,Cargo,2016-12-14T02:29:06Z,2016-12-14T04:45:06Z,27156,0
57.6034,11.66336,57.70704,11.66282,HAVSORNEN,HAVSORNEN,Passenger,Passenger,2016-12-15T14:09:06Z,2016-12-18T06:49:05Z,11537,0
54.79993,18.94455,54.38382,18.67442,HEINA,HEINA,Cargo,Cargo,2016-12-16T02:53:02Z,2016-12-18T14:41:02Z,49489,0
54.60271,18.80176,54.79671,18.76881,HEL-102,HEL-102,Fishing,Fishing,2016-12-15T01:05:02Z,2016-12-20T02:49:06Z,21700,0
54.60569,18.99016,54.68947,18.77327,HEL-103,HEL-103,Fishing,Fishing,2016-12-13T16:31:02Z,2016-12-17T03:55:06Z,16797,0
54.60349,18.802,54.79611,18.86066,HEL-111,HEL-111,Fishing,Fishing,2016-12-14T13:15:02Z,2016-12-20T02:53:02Z,21772,0
54.52793,18.89658,54.60288,18.80235,HEL-150,HEL-150,Fishing,Fishing,2016-12-13T14:21:01Z,2016-12-19T21:01:02Z,10325,0
54.62651,18.83743,54.47846,18.95482,HEL-152,HEL-152,Fishing,Fishing,2016-12-13T14:21:01Z,2016-12-20T14:11:02Z,18140,0
54.60118,18.80149,54.79958,18.43663,HEL-30,HEL-30,Fishing,Fishing,2016-12-15T07:25:02Z,2016-12-18T07:03:10Z,32228,0
54.61081,18.92609,54.62632,18.99098,HEL-4,HEL-4,Fishing,Fishing,2016-12-13T14:21:01Z,2016-12-19T00:53:02Z,4525,0
54.75296,18.99222,54.72917,18.9682,HEL-6,HEL-6,Fishing,Fishing,2016-12-17T09:03:02Z,2016-12-18T09:11:02Z,3065,0
54.60312,18.80134,54.79946,18.81878,HEL 112,HEL 112,Fishing,Fishing,2016-12-15T01:07:02Z,2016-12-20T02:51:02Z,21885,0
54.66508,18.68095,54.57585,18.99686,HEL 95,HEL 95,Fishing,Fishing,2016-12-15T07:21:02Z,2016-12-20T05:49:02Z,22655,0
57.9939,11.7566,57.92137,11.60733,HELENA KOSAN,HELENA KOSAN,Tanker,Tanker,2016-12-13T18:51:05Z,2016-12-13T19:33:05Z,11954,0
55.71553,21.11417,55.67552,20.80227,HELGA,HELGA,Cargo,Cargo,2016-12-13T17:03:07Z,2016-12-14T21:33:07Z,20069,0
57.9166,11.61143,57.99721,11.76468,HELGE,HELGE,Cargo,Cargo,2016-12-20T08:41:05Z,2016-12-20T09:17:06Z,12745,0
54.65445,19.81202,54.63455,19.89082,HELT,HELT,Cargo,Cargo,2016-12-16T00:13:02Z,2016-12-18T16:09:03Z,5538,0
57.99985,11.7647,54.53416,18.53954,HENDRIKA MARGARETHA,HENDRIKA MARGARETHA,Cargo,Cargo,2016-12-13T22:21:05Z,2016-12-19T22:47:06Z,568935,0
54.39919,18.69624,54.41148,18.78939,HERKULES,HERKULES,Tug,Tug,2016-12-13T14:21:01Z,2016-12-20T14:11:02Z,6189,0
54.38214,18.66117,54.4073,18.66271,HEWELIUSZ,HEWELIUSZ,Tug,Tug,2016-12-15T09:23:01Z,2016-12-17T17:51:07Z,2803,0
57.689,11.86717,57.6,11.61183,HOEGH TRIDENT,HOEGH TRIDENT,Cargo,Cargo,2016-12-14T19:47:06Z,2016-12-14T20:45:05Z,18154,0
59.92025,30.00738,59.91415,30.22958,HOOD ISLAND,HOOD ISLAND,Cargo,Cargo,2016-12-19T17:11:03Z,2016-12-19T18:41:04Z,12417,0
59.87143,30.21016,59.91951,30.01076,HVITANES,HVITANES,Cargo,Cargo,2016-12-13T20:55:07Z,2016-12-13T21:55:04Z,12353,0
54.52004,18.55192,54.3856,18.78193,HYDROGRAF 10,HYDROGRAF 10,Tug,Tug,2016-12-15T10:13:07Z,2016-12-20T14:11:02Z,21108,0
57.60235,11.66316,57.60576,11.60228,ICE RUNNER,ICE RUNNER,Cargo,Cargo,2016-12-16T09:35:11Z,2016-12-17T02:51:05Z,3651,0
57.60198,11.66064,57.68565,11.89108,ICEBEAM,ICEBEAM,Tug,Tug,2016-12-20T01:47:13Z,2016-12-20T02:55:07Z,16590,0
57.6,11.654,57.61012,11.60336,ICELAND CEMENT,ICELAND CEMENT,Cargo,Cargo,2016-12-17T11:19:05Z,2016-12-20T11:31:05Z,3223,0
57.60411,11.82074,57.99918,12.12659,IDA H,IDA H,Cargo,Cargo,2016-12-16T14:57:04Z,2016-12-16T19:29:09Z,47574,0
54.79635,18.93415,54.54376,18.50587,IDUNA,IDUNA,Cargo,Cargo,2016-12-13T22:17:03Z,2016-12-20T01:43:07Z,39379,0
54.53181,18.53634,54.7985,18.55142,IKAR,IKAR,Tug,Tug,2016-12-16T10:11:07Z,2016-12-18T00:09:07Z,29704,0
54.52139,18.55288,54.79791,18.43331,IMOR,IMOR,Tug,Tug,2016-12-15T09:01:17Z,2016-12-20T08:15:06Z,31730,0
57.6033,11.66449,57.68999,11.87788,INDIAN POINT,INDIAN POINT,Tanker,Tanker,2016-12-19T16:35:04Z,2016-12-19T17:59:08Z,15960,0
57.74827,11.60278,57.6853,11.61827,INGUN,INGUN,Fishing,Fishing,2016-12-15T03:33:06Z,2016-12-19T08:19:05Z,7070,0
54.78843,18.56585,54.56137,18.71215,INZ. ST. LEGOWSKI,INZ. ST. LEGOWSKI,Tug,Tug,2016-12-13T15:51:07Z,2016-12-20T14:11:02Z,26973,0
55.72871,20.8066,54.79051,18.89766,IRIS BOLTEN,IRIS BOLTEN,Cargo,Cargo,2016-12-14T19:05:07Z,2016-12-16T01:15:01Z,159902,0
57.66189,11.84574,57.62356,11.80562,ISADORA,ISADORA,Pleasure,Pleasure,2016-12-13T14:47:06Z,2016-12-18T15:43:08Z,4891,0
59.88517,30.21099,59.92123,30.00296,IVAN KRUZENSHTERN,IVAN KRUZENSHTERN,Tug,Tug,2016-12-13T15:13:04Z,2016-12-20T13:33:04Z,12287,0
54.63667,19.97507,54.65164,20.09871,IVAN SHCHEPETOV,IVAN SHCHEPETOV,Cargo,Cargo,2016-12-14T05:03:03Z,2016-12-19T19:31:02Z,8137,0
55.69012,21.13375,55.73813,20.81173,IVS KITE,IVS KITE,Cargo,Cargo,2016-12-14T17:35:07Z,2016-12-14T19:09:07Z,20889,0
55.67171,20.80895,55.68229,20.8079,JADE,JADE,Cargo,Cargo,2016-12-15T01:41:07Z,2016-12-16T14:23:06Z,1180,0
54.69575,18.67382,54.79601,18.93566,JAS-12,JAS-12,Fishing,Fishing,2016-12-15T00:31:02Z,2016-12-20T10:09:02Z,20190,0
54.69491,18.67736,54.53985,18.99999,JAS-64,JAS-64,Fishing,Fishing,2016-12-15T06:55:06Z,2016-12-20T10:45:01Z,27026,0
54.69603,18.67454,54.48427,18.93163,JAS-74,JAS-74,Fishing,Fishing,2016-12-16T01:43:02Z,2016-12-20T10:15:01Z,28821,0
54.59428,18.83052,54.79681,18.89184,JAS-79,JAS-79,Fishing,Fishing,2016-12-15T08:31:02Z,2016-12-20T08:49:02Z,22888,0
54.74417,18.91004,54.57363,18.99106,JAS-80,JAS-80,Fishing,Fishing,2016-12-15T09:53:02Z,2016-12-20T05:49:02Z,19688,0
54.69463,18.67718,54.79883,18.72346,JAS 102,JAS 102,Fishing,Fishing,2016-12-15T07:09:01Z,2016-12-20T13:31:02Z,11975,0
54.69587,18.67402,54.57643,18.99891,JAS 31,JAS 31,Fishing,Fishing,2016-12-15T08:09:02Z,2016-12-20T05:51:10Z,24798,0
54.69504,18.67399,54.4257,18.99796,JAS 39,JAS 39,Fishing,Fishing,2016-12-16T07:29:01Z,2016-12-20T10:51:02Z,36555,0
54.69382,18.67424,54.42344,18.99882,JAS 51,JAS 51,Fishing,Fishing,2016-12-16T07:31:02Z,2016-12-20T10:53:02Z,36673,0
54.60013,18.80269,54.44047,18.99968,JAS 76,JAS 76,Fishing,Fishing,2016-12-15T09:05:02Z,2016-12-20T11:21:01Z,21861,0
54.59962,18.83288,54.79996,18.88515,JAS 77,JAS 77,Fishing,Fishing,2016-12-15T02:09:02Z,2016-12-20T08:47:01Z,22554,0
54.69469,18.67671,54.53876,18.99776,JAS 78,JAS 78,Fishing,Fishing,2016-12-15T06:59:07Z,2016-12-20T10:21:02Z,27010,0
57.65317,11.80062,57.61049,11.80165,JETTEN GBG STAD VA,JETTEN GBG STAD VA,Cargo,Cargo,2016-12-13T14:41:06Z,2016-12-20T12:47:08Z,4752,0
54.79697,18.86352,54.52657,18.55843,JOAN,JOAN,Tanker,Tanker,2016-12-14T19:09:02Z,2016-12-20T09:53:07Z,35944,0
57.60165,11.66195,57.60559,11.60277,JONNI RITSCHER,JONNI RITSCHER,Cargo,Cargo,2016-12-19T06:51:05Z,2016-12-20T12:03:04Z,3557,0
54.39651,18.70703,54.79922,18.98125,JS CHUKAR,JS CHUKAR,Tanker,Tanker,2016-12-15T03:17:02Z,2016-12-15T07:17:02Z,48191,0
54.39949,18.68242,54.79893,18.91331,JUNO,JUNO,Cargo,Cargo,2016-12-15T12:31:02Z,2016-12-17T18:41:02Z,46892,0
59.91997,30.00853,59.91065,30.23618,KAIE,KAIE,Cargo,Cargo,2016-12-18T20:01:03Z,2016-12-18T23:19:04Z,12746,0
54.79696,18.42082,54.79896,18.44448,KAMBR,KAMBR,Tug,Tug,2016-12-13T17:51:07Z,2016-12-19T17:59:07Z,1535,0
54.52409,18.55698,54.54576,18.70197,KAPER-2 SG-312,KAPER-2 SG-312,Fishing,Fishing,2016-12-15T02:49:08Z,2016-12-20T14:11:02Z,9670,0
54.97714,20.34083,54.97494,20.28553,KAPITAN BELYAEV,KAPITAN BELYAEV,Unspecified,Unspecified,2016-12-15T18:35:03Z,2016-12-19T16:09:02Z,3542,0
54.53555,18.51842,54.79379,18.97519,KAPITAN GERASHCHENKO,KAPITAN GERASHCHENKO,Fishing,Fishing,2016-12-15T11:27:07Z,2016-12-18T14:43:02Z,41124,0
54.6701,19.80088,54.68515,20.17172,KAPITAN MARTYSHKIN,KAPITAN MARTYSHKIN,Tug,Tug,2016-12-17T04:41:02Z,2016-12-17T06:41:02Z,23927,0
59.92068,30.00557,59.89543,30.22261,KAPITAN MIRONOV,KAPITAN MIRONOV,Cargo,Cargo,2016-12-20T05:25:03Z,2016-12-20T06:45:04Z,12436,0
54.53488,18.53635,54.50751,18.60862,KAPITAN POINC,KAPITAN POINC,Tug,Tug,2016-12-18T20:45:07Z,2016-12-20T14:11:02Z,5575,0
59.88571,30.20288,59.92124,30.00254,KAPITAN YAKOVLEV,KAPITAN YAKOVLEV,Cargo,Cargo,2016-12-16T11:17:04Z,2016-12-16T12:15:05Z,11862,0
59.92069,30.00488,59.91248,30.24181,KAPITAN ZARUBIN,KAPITAN ZARUBIN,Tug,Tug,2016-12-15T07:25:04Z,2016-12-15T08:59:03Z,13252,0
54.7965,18.968,54.53367,18.544,KAREN C,KAREN C,Cargo,Cargo,2016-12-18T12:05:02Z,2016-12-19T12:29:06Z,40015,0
54.77127,18.99692,54.44434,18.65195,KAROLI,KAROLI,Cargo,Cargo,2016-12-19T14:29:01Z,2016-12-19T16:57:07Z,42652,0
59.91943,30.01164,59.91265,30.24089,KARU,KARU,Tug,Tug,2016-12-14T18:21:03Z,2016-12-14T19:33:04Z,12815,0
57.66772,11.79456,57.7137,11.95618,KBV 001,KBV 001,Tug,Tug,2016-12-14T14:29:05Z,2016-12-14T17:03:07Z,10894,0
57.99521,11.75163,57.92141,11.6069,KBV 032,KBV 032,Tug,Tug,2016-12-13T16:31:05Z,2016-12-17T12:51:05Z,11856,0
57.60825,11.8223,57.68214,11.87019,KBV 316,KBV 316,Tug,Tug,2016-12-13T16:39:06Z,2016-12-16T19:45:08Z,8706,0
57.68264,11.87068,57.70635,11.66126,KBV 475,KBV 475,Tug,Tug,2016-12-15T13:45:05Z,2016-12-15T14:19:06Z,12735,0
59.91471,30.24826,59.91918,30.01302,KEGUMS,KEGUMS,Cargo,Cargo,2016-12-13T23:05:03Z,2016-12-14T00:35:05Z,13136,0
54.96267,20.3225,54.69683,20.439330000000002,KENDRICK,KENDRICK,Tug,Tug,2016-12-13T14:31:03Z,2016-12-19T21:05:03Z,30527,0
54.75262,18.99383,54.79873,18.93636,KERLI,KERLI,Cargo,Cargo,2016-12-15T20:33:02Z,2016-12-17T11:19:02Z,6322,0
57.69002,11.88024,57.60406,11.60215,KEY BAY,KEY BAY,Tanker,Tanker,2016-12-15T18:09:06Z,2016-12-15T19:21:06Z,19131,0
54.68676,20.18446,54.67535,19.80829,KEY BORA,KEY BORA,Tanker,Tanker,2016-12-14T02:19:03Z,2016-12-14T04:07:02Z,24242,0
57.99352,11.75195,57.9219,11.61067,KEY BREEZE,KEY BREEZE,Tanker,Tanker,2016-12-14T04:31:05Z,2016-12-14T05:05:05Z,11541,0
54.65123,19.82661,54.68076,19.80089,KEY FJORD,KEY FJORD,Tanker,Tanker,2016-12-13T14:31:03Z,2016-12-14T22:33:03Z,3681,0
55.71603,21.11105,55.69576,21.12678,KLASCO1,KLASCO1,Tug,Tug,2016-12-14T15:29:06Z,2016-12-19T14:45:06Z,2463,0
55.71163,21.11533,55.69783,21.12967,KLASCO2,KLASCO2,Tug,Tug,2016-12-14T15:25:07Z,2016-12-19T14:59:07Z,1780,0
57.68848,11.60009,57.69917,11.64102,KLONDYKE,KLONDYKE,Fishing,Fishing,2016-12-14T13:29:05Z,2016-12-18T17:45:05Z,2710,0
59.91646,30.26004,59.8958,30.22545,KNOSSOS,KNOSSOS,Cargo,Cargo,2016-12-16T12:21:03Z,2016-12-16T13:43:05Z,3003,0
54.61851,18.8991,54.79803,18.43236,KOL-110,KOL-110,Tug,Tug,2016-12-13T14:21:01Z,2016-12-14T23:17:07Z,36061,0
54.79747,18.42027,54.79823,18.44065,KOL-148,KOL-148,Fishing,Fishing,2016-12-15T05:23:07Z,2016-12-18T03:33:07Z,1311,0
59.88493,30.22082,59.89439,30.22136,KOLA,KOLA,Tanker,Tanker,2016-12-16T15:57:03Z,2016-12-20T11:09:05Z,1054,0
54.63287,19.90823,54.63464,19.89107,KOMMUNAR,KOMMUNAR,Tug,Tug,2016-12-17T07:29:03Z,2016-12-18T12:41:03Z,1123,0
54.79592,18.41622,54.53934,18.91359,KONTROLER 19,KONTROLER 19,Tug,Tug,2016-12-16T11:53:07Z,2016-12-20T14:11:02Z,42908,0
55.71239,20.8023,55.71922,21.1093,KONYA,KONYA,Cargo,Cargo,2016-12-14T03:09:07Z,2016-12-15T19:45:08Z,19266,0
54.66181,19.80238,54.6888,20.20117,KOZNITZA,KOZNITZA,Cargo,Cargo,2016-12-19T00:03:03Z,2016-12-20T14:01:03Z,25844,0
57.60757,11.60123,57.64369,11.85629,KRISTIN,KRISTIN,Fishing,Fishing,2016-12-16T14:07:05Z,2016-12-20T09:09:07Z,15726,0
54.68052,20.15941,54.65879,20.12186,KRYSTYNA,KRYSTYNA,Unspecified,Unspecified,2016-12-16T18:25:02Z,2016-12-18T04:43:03Z,3420,0
54.97049,20.33698,54.9846,20.35163,KUBAN,KUBAN,Tug,Tug,2016-12-16T03:02:06Z,2016-12-20T14:07:04Z,1828,0
54.5951,18.82385,54.602,18.8014,KUZ-42,KUZ-42,Fishing,Fishing,2016-12-15T14:01:02Z,2016-12-19T05:53:02Z,1639,0
54.39238,18.71183,54.4429,18.99962,KYMOPOLIA,KYMOPOLIA,Cargo,Cargo,2016-12-16T14:53:02Z,2016-12-16T16:17:02Z,19471,0
57.6038,11.66716,57.99671,12.12702,LADY AMI,LADY AMI,Cargo,Cargo,2016-12-19T11:05:06Z,2016-12-19T15:33:08Z,51548,0
54.6732,18.98727,54.54302,18.50854,LANTAU ARROW,LANTAU ARROW,Cargo,Cargo,2016-12-13T15:17:02Z,2016-12-13T21:29:08Z,34098,0
55.68026,20.80011,55.77033,20.8056,LARGONA,LARGONA,Cargo,Cargo,2016-12-17T06:11:07Z,2016-12-17T14:39:06Z,10032,0
59.884,30.20749,59.92116,30.00346,LAVAUX,LAVAUX,Cargo,Cargo,2016-12-15T00:37:03Z,2016-12-15T01:41:05Z,12118,0
59.91965,30.01041,59.88353,30.20673,LAZURITE,LAZURITE,Cargo,Cargo,2016-12-20T08:27:04Z,2016-12-20T09:47:04Z,11674,0
55.66133,21.15318,55.75564,20.81337,LBB-1010,LBB-1010,Fishing,Fishing,2016-12-15T00:09:05Z,2016-12-19T02:59:06Z,23758,0
55.6598,21.15271,55.76064,20.80334,LBB 1032,LBB 1032,Fishing,Fishing,2016-12-15T05:37:06Z,2016-12-19T02:27:06Z,24619,0
55.66035,21.15334,55.76343,20.80455,LBB 1044,LBB 1044,Fishing,Fishing,2016-12-15T01:07:07Z,2016-12-19T02:01:06Z,24701,0
55.66071,21.15333,55.75777,20.80158,LBB 1066,LBB 1066,Fishing,Fishing,2016-12-14T22:57:06Z,2016-12-18T14:17:06Z,24564,0
55.66041,21.15294,55.76611,20.80151,LBB 1094,LBB 1094,Fishing,Fishing,2016-12-15T00:47:07Z,2016-12-19T00:43:06Z,24983,0
55.67559,21.13908,55.76075,20.80909,LBB 1107,LBB 1107,Fishing,Fishing,2016-12-15T11:35:06Z,2016-12-20T01:03:06Z,22759,0
55.67683,21.14021,55.75918,20.80417,LBB 1113,LBB 1113,Fishing,Fishing,2016-12-15T02:37:07Z,2016-12-19T03:23:07Z,22978,0
54.60197,18.80203,54.79671,18.42018,LEB-7,LEB-7,Fishing,Fishing,2016-12-15T08:35:02Z,2016-12-20T13:59:07Z,32761,0
57.60167,11.6585,57.696,11.91233,LECKO,LECKO,Cargo,Cargo,2016-12-15T08:25:06Z,2016-12-20T14:11:05Z,18409,0
55.73443,20.81277,55.72257,21.10308,LEENI,LEENI,Tanker,Tanker,2016-12-19T21:53:05Z,2016-12-19T23:05:06Z,18246,0
57.61357,11.60817,57.74821,11.60452,LEXUS,LEXUS,Tanker,Tanker,2016-12-16T04:19:05Z,2016-12-18T00:49:05Z,14990,0
54.69172,20.19706,54.68194,20.162,LIGER,LIGER,Tug,Tug,2016-12-16T13:35:02Z,2016-12-20T13:31:02Z,2505,0
54.75408,18.95318,54.79103,18.918,LILY-B,LILY-B,Cargo,Cargo,2016-12-14T13:09:01Z,2016-12-16T02:47:02Z,4693,0
54.50918,18.78108,54.79935,18.96218,LINGEDIJK,LINGEDIJK,Cargo,Cargo,2016-12-14T13:09:01Z,2016-12-14T16:01:02Z,34343,0
54.79878,18.57892,54.79728,18.61787,LISA D,LISA D,Cargo,Cargo,2016-12-16T05:15:07Z,2016-12-17T06:03:07Z,2505,0
59.92163,30.00039,59.90162,30.22262,LISTER,LISTER,Cargo,Cargo,2016-12-19T06:13:05Z,2016-12-19T08:39:05Z,12601,0
54.79916,18.91567,54.79639,18.7432,LIV KRISTIN,LIV KRISTIN,Cargo,Cargo,2016-12-15T19:45:01Z,2016-12-16T22:03:07Z,11072,0
54.43909,18.64608,55.8127,20.80025,LIVA GRETA,LIVA GRETA,Cargo,Cargo,2016-12-13T18:15:02Z,2016-12-18T05:07:06Z,205361,0
59.89403,30.22241,59.91128,30.23179,LOOKMAN,LOOKMAN,Tug,Tug,2016-12-13T14:43:03Z,2016-12-20T12:55:04Z,1990,0
55.65865,21.14219,55.70809,21.11389,LOTAS,LOTAS,Tug,Tug,2016-12-14T13:09:06Z,2016-12-20T14:11:06Z,5783,0
54.7074,19.84796,54.63737,19.89172,LOTSMAN-3,LOTSMAN-3,Tug,Tug,2016-12-15T20:57:03Z,2016-12-20T14:07:04Z,8289,0
59.92023,30.0064,59.89715,30.2254,LOTSMAN FEDOROV,LOTSMAN FEDOROV,Tug,Tug,2016-12-18T06:25:03Z,2016-12-18T07:43:05Z,12490,0
54.65042,19.86339,54.6555,19.84448,LOTSMAN SARZHIN,LOTSMAN SARZHIN,Tug,Tug,2016-12-16T10:49:03Z,2016-12-20T14:01:03Z,1343,0
59.87711,30.2227,59.89635,30.21546,LOYA,LOYA,Tanker,Tanker,2016-12-14T21:15:04Z,2016-12-20T12:37:04Z,2180,0
55.70312,21.1241,55.72733,20.87409,LTU SAR SHIP SAKIAI,LTU SAR SHIP SAKIAI,Tug,Tug,2016-12-18T04:27:06Z,2016-12-20T12:11:06Z,15907,0
54.52668,18.55902,57.60477,11.68583,LUKE,LUKE,Tanker,Tanker,2016-12-16T13:11:07Z,2016-12-20T04:53:05Z,547136,0
57.99933,12.12667,57.613,11.60933,LURO,LURO,Cargo,Cargo,2016-12-15T07:59:05Z,2016-12-15T16:13:05Z,52829,0
55.65667,21.15483,55.88633,20.80083,LYRA,LYRA,Cargo,Cargo,2016-12-14T21:19:07Z,2016-12-16T05:27:06Z,33837,0
54.40384,18.67731,54.79746,18.90025,M/F WAWEL,M/F WAWEL,Passenger,Passenger,2016-12-13T20:09:02Z,2016-12-19T21:57:01Z,46116,0
57.87987,11.64797,57.9222,11.60867,M/S ALO,M/S ALO,Tug,Tug,2016-12-13T14:31:05Z,2016-12-13T15:09:05Z,5254,0
54.79253,18.99195,54.79345,18.96528,MAERSKMCKINNEYMOLLER,MAERSKMCKINNEYMOLLER,Cargo,Cargo,2016-12-16T05:29:02Z,2016-12-19T14:01:02Z,1715,0
54.36347,18.65905,54.53664,18.5289,MAJA,MAJA,Tug,Tug,2016-12-13T14:51:02Z,2016-12-17T22:05:06Z,21037,0
57.70065,11.67127,57.70803,11.702209999999999,MARIE,MARIE,Passenger,Passenger,2016-12-13T17:31:06Z,2016-12-20T13:59:05Z,2015,0
57.68849,11.87729,57.60017,11.65034,MARIE KIRK,MARIE KIRK,Tanker,Tanker,2016-12-18T13:47:05Z,2016-12-18T15:09:05Z,16717,0
55.65416,21.15556,55.01468,20.27733,MARIEKE,MARIEKE,Tug,Tug,2016-12-13T22:01:06Z,2016-12-20T13:03:02Z,90329,0
57.68079,11.64695,57.65689,11.60139,MARINO,MARINO,Fishing,Fishing,2016-12-19T07:09:05Z,2016-12-19T07:27:05Z,3799,0
54.79844,18.8894,57.60309,11.65381,MARINUS,MARINUS,Tanker,Tanker,2016-12-15T04:07:02Z,2016-12-19T15:59:05Z,545662,0
54.37697,18.65792,54.71022,18.99805,MARY A,MARY A,Tanker,Tanker,2016-12-17T18:45:01Z,2016-12-18T02:11:02Z,43111,0
57.92079,11.60464,57.91011,11.60061,MARY SWE,MARY SWE,Pleasure,Pleasure,2016-12-17T16:51:05Z,2016-12-18T16:11:04Z,1213,0
55.71166,20.80487,55.73548,20.8045,MAUREEN S,MAUREEN S,Cargo,Cargo,2016-12-17T08:51:06Z,2016-12-19T09:07:06Z,2652,0
54.40132,18.67925,54.79606,18.7044,MERI,MERI,Cargo,Cargo,2016-12-15T20:33:02Z,2016-12-16T18:15:07Z,43972,0
54.66782,19.80698,55.1754,19.84796,MERITA,MERITA,Cargo,Cargo,2016-12-17T15:09:02Z,2016-12-20T05:49:03Z,56564,0
59.88967,30.20479,59.87445,30.20166,MERKURIY,MERKURIY,Tug,Tug,2016-12-13T14:31:04Z,2016-12-20T13:45:04Z,1703,0
54.663,19.80511,54.69802,20.44253,MIDVOLGA-3,MIDVOLGA-3,Tanker,Tanker,2016-12-16T01:45:03Z,2016-12-20T14:11:02Z,41208,0
59.87283,30.20483,54.79095,18.90216,MILAN EXPRESS,MILAN EXPRESS,Cargo,Cargo,2016-12-13T20:35:03Z,2016-12-18T02:23:02Z,881874,0
57.6018,11.65925,57.61091,11.60537,MINERVA,MINERVA,Cargo,Cargo,2016-12-19T01:07:05Z,2016-12-19T22:57:05Z,3370,0
54.79972,18.90249,54.79956,18.98795,MINERVA GEORGIA,MINERVA GEORGIA,Tanker,Tanker,2016-12-14T16:07:02Z,2016-12-16T15:43:02Z,5484,0
55.71131,20.99557,55.66434,21.14768,MINGE,MINGE,Tug,Tug,2016-12-14T13:13:06Z,2016-12-19T08:23:06Z,10883,0
54.66792,19.80275,54.68716,20.19062,MIRVA VG,MIRVA VG,Cargo,Cargo,2016-12-17T14:07:03Z,2016-12-19T20:15:03Z,25056,0
55.72425,20.80582,55.73935,20.80021,MISTRAL,MISTRAL,Cargo,Cargo,2016-12-14T18:13:06Z,2016-12-17T00:37:09Z,1717,0
54.38781,18.71128,57.60914,11.66127,MOL QUINTET,MOL QUINTET,Cargo,Cargo,2016-12-14T19:05:02Z,2016-12-17T03:21:07Z,566259,0
59.91201,30.24084,59.90987,30.22301,MOSCHNYI,MOSCHNYI,Tug,Tug,2016-12-13T18:33:03Z,2016-12-20T14:11:04Z,1023,0
57.92044,11.606,57.99975,11.75925,MOZART,MOZART,Tanker,Tanker,2016-12-20T01:43:05Z,2016-12-20T02:17:05Z,12643,0
57.60683,11.66383,57.60483,11.60667,MSC AMY,MSC AMY,Cargo,Cargo,2016-12-16T13:17:05Z,2016-12-17T04:29:05Z,3416,0
55.72788,20.81725,55.73788,20.817,MSC MANDRAKI,MSC MANDRAKI,Cargo,Cargo,2016-12-13T14:45:06Z,2016-12-14T17:11:06Z,1113,0
54.79958,18.91207,55.73704,20.81245,MSC MATILDE,MSC MATILDE,Cargo,Cargo,2016-12-17T09:57:02Z,2016-12-20T03:57:14Z,159418,0
57.68761,11.85961,57.60147,11.62912,MSC OSCAR,MSC OSCAR,Cargo,Cargo,2016-12-14T18:15:05Z,2016-12-14T19:21:05Z,16748,0
59.91933,30.01209,59.87473,30.20147,MSC SANTHYA,MSC SANTHYA,Cargo,Cargo,2016-12-20T07:13:03Z,2016-12-20T08:41:04Z,11681,0
57.84939,11.62924,57.66635,11.84469,MUCKLE FLUGGA,MUCKLE FLUGGA,Pleasure,Pleasure,2016-12-17T13:53:04Z,2016-12-18T17:11:08Z,24060,0
59.90029,30.22003,59.87851,30.19774,MUDYUG,MUDYUG,Tug,Tug,2016-12-14T13:09:03Z,2016-12-19T23:23:04Z,2725,0
54.7946,18.9009,54.77525,18.94595,MULTIMAR,MULTIMAR,Cargo,Cargo,2016-12-20T13:57:01Z,2016-12-20T14:11:02Z,3606,0
54.45068,18.87601,54.46103,18.99995,MURRAY STAR,MURRAY STAR,Tanker,Tanker,2016-12-13T15:51:02Z,2016-12-18T16:41:02Z,8103,0
55.68559,21.13245,55.6753,21.13594,MUSHA,MUSHA,Tug,Tug,2016-12-19T11:01:07Z,2016-12-19T11:33:06Z,1166,0
59.91112,30.22702,59.92188,30.00295,MUSON,MUSON,Tug,Tug,2016-12-13T16:47:03Z,2016-12-15T11:21:04Z,12560,0
54.68675,20.18858,54.67864,19.80106,NACC TORONTO,NACC TORONTO,Cargo,Cargo,2016-12-14T00:51:02Z,2016-12-14T02:39:02Z,24955,0
55.73117,20.80119,55.65922,21.15254,NATO WARSHIP M53,NATO WARSHIP M53,Tug,Tug,2016-12-20T00:19:06Z,2016-12-20T02:15:06Z,23453,0
54.7975,18.43951,57.60019,11.6524,NAUTILUS,NAUTILUS,Fishing,Tanker,2016-12-18T23:57:06Z,2016-12-20T07:13:05Z,523060,0
57.99723,11.75856,57.9204,11.60408,NAVEN,NAVEN,Cargo,Cargo,2016-12-14T22:33:05Z,2016-12-14T23:13:05Z,12505,0
55.72282,21.10048,55.73421,20.81002,NAVIG8 STRENGTH,NAVIG8 STRENGTH,Tanker,Tanker,2016-12-18T16:31:06Z,2016-12-18T17:37:06Z,18252,0
54.6853,20.17267,54.6664,19.81832,NBP CARRIER,NBP CARRIER,Cargo,Cargo,2016-12-16T01:13:03Z,2016-12-16T02:57:02Z,22905,0
54.69521,20.43611,54.69045,20.39681,NEMAN,NEMAN,Tanker,Tanker,2016-12-13T15:55:03Z,2016-12-19T12:05:02Z,2583,0
54.39578,18.67623,57.60057,11.66171,NEPTUNUS,NEPTUNUS,Tanker,Tanker,2016-12-13T20:57:02Z,2016-12-19T17:25:05Z,563394,0
54.98615,20.35031,54.98203,20.26942,NERO,NERO,Tug,Tug,2016-12-14T15:11:02Z,2016-12-19T15:39:03Z,5187,0
59.87703,30.22326,59.91261,30.22764,NEVA LUX,NEVA LUX,Tanker,Tanker,2016-12-13T17:49:04Z,2016-12-18T15:27:04Z,3968,0
59.95117,30.40012,59.85757,30.49591,NEVSKAYA ZASTAVA,NEVSKAYA ZASTAVA,Tug,Tug,2016-12-14T13:09:04Z,2016-12-16T16:19:04Z,11711,0
57.60192,11.60584,57.60047,11.66037,NEWYORKER,NEWYORKER,Cargo,Cargo,2016-12-19T04:59:05Z,2016-12-20T00:21:05Z,3256,0
57.6872,11.89009,57.71362,11.94995,NILS,NILS,Unspecified,Unspecified,2016-12-13T15:21:06Z,2016-12-16T17:37:08Z,4618,0
57.6066,11.60113,57.60355,11.64468,NIMBUS,NIMBUS,Tanker,Tanker,2016-12-19T02:25:05Z,2016-12-20T03:59:05Z,2619,0
54.7995,18.87785,54.53049,18.53539,NINA 1,NINA 1,Cargo,Cargo,2016-12-20T08:37:02Z,2016-12-20T12:31:07Z,37187,0
54.40447,18.71816,54.41113,18.78768,NISSOS SCHINOUSSA,NISSOS SCHINOUSSA,Tanker,Tanker,2016-12-14T20:51:02Z,2016-12-20T14:11:02Z,4565,0
57.60088,11.63348,57.61386,11.60719,NORDEN,NORDEN,Tanker,Tanker,2016-12-15T14:39:07Z,2016-12-19T07:51:05Z,2132,0
57.94067,11.68817,57.60067,11.6405,NORDIC NORA,NORDIC NORA,Tanker,Tanker,2016-12-14T13:09:05Z,2016-12-15T13:35:05Z,37954,0
54.66904,19.80469,54.70451,20.45652,NORDIC PHILIP,NORDIC PHILIP,Cargo,Cargo,2016-12-18T13:51:03Z,2016-12-19T13:29:02Z,42129,0
57.61015,11.60678,57.68983,11.88979,NORTHERN OCEAN,NORTHERN OCEAN,Tanker,Tanker,2016-12-17T23:45:05Z,2016-12-19T17:31:07Z,19049,0
57.70616,11.66012,57.66696,11.78988,NORTHERN WIND,NORTHERN WIND,Unspecified,Unspecified,2016-12-13T14:47:06Z,2016-12-20T14:11:05Z,8869,0
59.89056,30.2077,59.921,30.00354,NOVAYA ZEMLYA,NOVAYA ZEMLYA,Cargo,Cargo,2016-12-15T12:37:04Z,2016-12-15T13:49:05Z,11889,0
54.79969,18.90913,54.38176,18.65697,NURI SONAY,NURI SONAY,Cargo,Cargo,2016-12-17T07:05:02Z,2016-12-19T17:03:02Z,49285,0
55.70157,21.12321,55.63893,20.9188,NZ55,NZ55,Tug,Tug,2016-12-15T10:43:07Z,2016-12-20T14:11:06Z,14605,0
55.69667,20.83911,55.72972,20.80735,OCEAN RAINBOW,OCEAN RAINBOW,Cargo,Cargo,2016-12-14T13:11:07Z,2016-12-18T16:37:06Z,4184,0
54.53051,18.53488,54.79857,18.92571,OCEAN VOYAGER,OCEAN VOYAGER,Cargo,Cargo,2016-12-19T10:39:08Z,2016-12-19T13:39:02Z,39033,0
54.93947,19.87321,54.69707,20.44068,ODISSEY,ODISSEY,Tug,Tug,2016-12-16T06:17:03Z,2016-12-16T20:15:02Z,45308,0
54.6868,20.18857,54.6702,19.81058,OLGA,OLGA,Cargo,Cargo,2016-12-17T02:35:02Z,2016-12-17T04:47:02Z,24398,0
57.60216,11.65669,57.69016,11.88068,OLJAREN,OLJAREN,Tanker,Tanker,2016-12-15T07:49:06Z,2016-12-20T13:11:05Z,16553,0
59.88065,30.18592,59.92181,30.000610000000002,OMSKIY-134,OMSKIY-134,Cargo,Cargo,2016-12-13T23:05:03Z,2016-12-14T02:21:05Z,11314,0
54.37934,18.66183,54.71913,18.99795,OMSKIY-140,OMSKIY-140,Cargo,Cargo,2016-12-14T13:09:01Z,2016-12-16T00:47:02Z,43609,0
54.65581,19.84741,54.68684,20.18607,OMSKIY-141,OMSKIY-141,Cargo,Cargo,2016-12-15T02:09:03Z,2016-12-15T03:53:03Z,22072,0
54.53861,18.52453,54.52187,18.55265,OPAL,OPAL,Tug,Tug,2016-12-19T19:33:15Z,2016-12-19T20:21:14Z,2602,0
59.88822,30.23087,59.92141,30.00135,ORAKAI,ORAKAI,Tanker,Tanker,2016-12-18T00:29:04Z,2016-12-18T22:13:04Z,13334,0
54.53213,18.53373,54.79833,18.88067,ORAMALIA,ORAMALIA,Tanker,Tanker,2016-12-13T19:59:07Z,2016-12-13T22:37:02Z,37109,0
57.70609,11.66019,57.70401,11.93903,ORIGO,ORIGO,Passenger,Passenger,2016-12-14T19:07:05Z,2016-12-14T20:29:05Z,16586,0
54.79603,18.74409,54.52216,18.55793,ORKA WLA-139,ORKA WLA-139,Fishing,Fishing,2016-12-15T17:15:01Z,2016-12-15T19:49:07Z,32759,0
54.50494,18.70188,54.54214,18.55812,ORP ARCTOWSKI,ORP ARCTOWSKI,Tug,Tug,2016-12-13T14:21:01Z,2016-12-20T13:59:07Z,10169,0
54.75328,18.99165,54.54311,18.55489,ORP BALTYK,ORP BALTYK,Tug,Tug,2016-12-13T15:43:02Z,2016-12-17T13:49:07Z,36589,0
54.42844,18.87161,54.74777,18.76485,ORP CZERNICKI,ORP CZERNICKI,Tug,Tug,2016-12-13T14:21:01Z,2016-12-14T14:55:08Z,36209,0
54.55459,18.58625,54.54211,18.52275,ORP FLAMING,ORP FLAMING,Tug,Tug,2016-12-13T14:31:08Z,2016-12-13T16:27:08Z,4329,0
54.4961,18.69812,54.49842,18.80895,ORP KORMORAN,ORP KORMORAN,Tug,Tug,2016-12-13T14:21:01Z,2016-12-17T17:25:02Z,7170,0
54.53816,18.53379,54.52404,18.5507,ORP ZBYSZKO,ORP ZBYSZKO,Tug,Tug,2016-12-14T16:25:07Z,2016-12-15T17:27:07Z,1914,0
59.91939,30.01047,59.91513,30.24255,OSTEREMS,OSTEREMS,Cargo,Cargo,2016-12-18T06:21:03Z,2016-12-20T06:39:04Z,12958,0
57.60409,11.66461,57.60863,11.60274,PACIFIC,PACIFIC,Tanker,Tanker,2016-12-16T16:09:06Z,2016-12-17T16:41:05Z,3724,0
55.73323,20.80962,55.69643,21.12715,PACIFIC CALM,PACIFIC CALM,Cargo,Cargo,2016-12-15T14:27:07Z,2016-12-19T14:51:06Z,20329,0
59.89355,30.21176,59.91925,30.01225,PAPUA,PAPUA,Cargo,Cargo,2016-12-14T20:57:03Z,2016-12-14T22:17:05Z,11498,0
55.67365,21.13989,55.71962,21.10498,PATRIA SEAWAYS,PATRIA SEAWAYS,Passenger,Passenger,2016-12-13T14:31:07Z,2016-12-20T14:11:06Z,5566,0
57.6043,11.66445,57.68903,11.87842,PATRICIA,PATRICIA,Tanker,Tanker,2016-12-14T17:05:05Z,2016-12-19T16:21:15Z,15857,0
54.65849,19.80161,54.67395,19.80675,PATRICIA ESSBERGER,PATRICIA ESSBERGER,Tanker,Tanker,2016-12-14T03:15:03Z,2016-12-15T15:35:03Z,1753,0
59.89034,30.22967,59.91867,30.01483,PAULINE RUSS,PAULINE RUSS,Cargo,Cargo,2016-12-13T15:57:04Z,2016-12-14T01:19:04Z,12400,0
57.98738,11.74831,57.99965,11.76381,PENTA 80,PENTA 80,Pleasure,Pleasure,2016-12-13T14:57:06Z,2016-12-20T11:43:13Z,1644,0
54.79546,18.94869,54.53953,18.5179,PETER PAN,PETER PAN,Cargo,Cargo,2016-12-19T20:49:02Z,2016-12-19T23:27:06Z,39760,0
57.69005,11.83444,57.61275,11.60402,PETUNIA SEAWAYS,PETUNIA SEAWAYS,Cargo,Cargo,2016-12-14T22:03:05Z,2016-12-17T20:09:05Z,16199,0
59.88109,30.23152,54.40428,18.66728,PHANTOM,PHANTOM,Cargo,Cargo,2016-12-16T11:59:03Z,2016-12-20T12:39:02Z,924829,0
54.42218,18.82547,54.6967,20.43971,PHOENIX II,PHOENIX II,Cargo,Cargo,2016-12-14T13:09:01Z,2016-12-20T06:35:02Z,108584,0
57.70671,11.66014,57.68319,11.8704,PILOT 218 SE,PILOT 218 SE,Tug,Tug,2016-12-14T17:03:05Z,2016-12-19T15:41:05Z,12780,0
57.70617,11.66037,57.66572,11.80616,PILOT 745 SE,PILOT 745 SE,Tug,Tug,2016-12-14T13:57:06Z,2016-12-20T14:11:05Z,9774,0
57.66984,11.82199,57.6841,11.86751,PILOT 746 SE,PILOT 746 SE,Tug,Tug,2016-12-13T14:31:05Z,2016-12-20T13:59:07Z,3140,0
55.72104,21.10332,55.6646,21.1486,PILOT DANGE,PILOT DANGE,Tug,Tug,2016-12-13T14:35:06Z,2016-12-20T08:59:06Z,6895,0
57.60324,11.66702,57.61605,11.60298,PINTA,PINTA,Cargo,Cargo,2016-12-15T09:03:06Z,2016-12-17T09:05:05Z,4076,0
59.91447,30.24538,59.9208,30.0052,PITZTAL,PITZTAL,Cargo,Cargo,2016-12-15T11:43:04Z,2016-12-15T13:25:04Z,13420,0
54.39208,18.99652,54.46845,18.99503,PL ZAG-17,PL ZAG-17,Fishing,Fishing,2016-12-13T18:45:02Z,2016-12-20T08:47:01Z,8502,0
59.89462,30.22845,59.91966,30.01102,PLYCA,PLYCA,Cargo,Cargo,2016-12-14T23:57:03Z,2016-12-15T00:53:04Z,12452,0
54.53283,18.560669999999998,54.38383,18.6735,POLA,POLA,Tanker,Tanker,2016-12-13T16:07:08Z,2016-12-13T18:07:02Z,18122,0
59.88855,30.21139,59.92054,30.00686,POLA MUROM,POLA MUROM,Cargo,Cargo,2016-12-14T00:13:03Z,2016-12-14T01:43:04Z,11959,0
59.92043,30.00628,59.91431,30.24254,POLA UGLICH,POLA UGLICH,Cargo,Cargo,2016-12-19T05:01:03Z,2016-12-19T06:31:04Z,13201,0
57.70591,11.66197,57.67645,11.74538,POLSTJARNAN IV,POLSTJARNAN IV,Tug,Tug,2016-12-20T13:45:05Z,2016-12-20T14:11:05Z,5948,0
57.71171,11.68323,57.71133,11.66051,POLSTJERNAN,POLSTJERNAN,Passenger,Passenger,2016-12-14T13:09:05Z,2016-12-14T16:51:05Z,1352,0
54.72334,18.99535,54.48677,18.7207,PORONIEC,PORONIEC,Tanker,Tanker,2016-12-15T12:17:02Z,2016-12-20T14:11:02Z,31735,0
55.72776,21.05418,55.64584,20.80293,POSEIDON I,POSEIDON I,Tug,Tug,2016-12-13T14:31:07Z,2016-12-20T13:57:06Z,18214,0
55.73375,20.80043,55.99124,20.81532,PRIMA FORTUNA,PRIMA FORTUNA,Cargo,Cargo,2016-12-17T12:13:06Z,2016-12-18T05:55:05Z,28679,0
57.60925,11.62574,57.61313,11.60117,PRIMULA SEAWAYS,PRIMULA SEAWAYS,Cargo,Cargo,2016-12-15T21:03:06Z,2016-12-20T02:09:04Z,1527,0
59.869,30.21883,59.92133,30.00217,PRINCE OF WAVES,PRINCE OF WAVES,Cargo,Cargo,2016-12-19T21:21:03Z,2016-12-19T22:29:04Z,13427,0
59.91898,30.01396,59.92598,30.23285,PRINCESS ANASTASIA,PRINCESS ANASTASIA,Passenger,Passenger,2016-12-16T07:33:04Z,2016-12-20T09:23:04Z,12237,0
59.91469,30.24301,59.92061,30.00629,PRINCESSE OUI,PRINCESSE OUI,Cargo,Cargo,2016-12-18T22:25:03Z,2016-12-19T00:01:04Z,13225,0
57.60169,11.62389,57.60552,11.60822,PRISCILLA,PRISCILLA,Cargo,Cargo,2016-12-19T22:11:05Z,2016-12-19T22:15:05Z,1027,0
57.6899,11.87767,57.60757,11.60958,PROCIDA,PROCIDA,Tanker,Tanker,2016-12-14T15:55:05Z,2016-12-14T16:53:05Z,18413,0
57.60279,11.66232,57.60825,11.60413,PROSPERO,PROSPERO,Tanker,Tanker,2016-12-15T14:55:06Z,2016-12-17T16:33:06Z,3523,0
54.53195,18.52518,54.50574,18.60493,R-20,R-20,Tug,Tug,2016-12-15T12:39:07Z,2016-12-20T14:01:02Z,5922,0
54.79988,18.45597,54.79807,18.43298,R 222 BORNOE,R 222 BORNOE,Fishing,Fishing,2016-12-14T19:11:09Z,2016-12-15T03:07:07Z,1489,0
54.61238,18.7893,54.59788,18.75448,R3,R3,Tug,Tug,2016-12-17T15:21:02Z,2016-12-17T16:09:07Z,2765,0
54.69035,20.18576,54.6854,20.23792,RAMAVA,RAMAVA,Tanker,Tanker,2016-12-13T17:23:03Z,2016-12-20T12:55:03Z,3401,0
54.51649,18.99837,57.60032,11.65572,RAMONA,RAMONA,Tanker,Cargo,2016-12-15T09:03:02Z,2016-12-17T15:41:04Z,570573,0
57.70722,11.65974,57.7479,11.60657,RANDI,RANDI,Fishing,Fishing,2016-12-17T11:55:05Z,2016-12-18T22:03:05Z,5522,0
59.88017,30.22884,59.90933,30.06159,RB-20,RB-20,Tug,Tug,2016-12-15T18:23:04Z,2016-12-15T21:13:04Z,9887,0
54.63573,19.94698,54.64521,19.90205,RB-394,RB-394,Tug,Tug,2016-12-15T15:43:03Z,2016-12-17T13:07:03Z,3081,0
54.63436,19.90403,54.64464,19.90167,RB-395,RB-395,Tug,Tug,2016-12-15T09:43:02Z,2016-12-20T14:11:02Z,1154,0
54.6345,19.90553,54.64248,19.89832,RB-413,RB-413,Tug,Tug,2016-12-13T14:35:03Z,2016-12-20T14:07:04Z,1002,0
55.73159,20.80207,55.69032,20.80985,REGINA SEAWAYS,REGINA SEAWAYS,Passenger,Passenger,2016-12-14T16:23:06Z,2016-12-18T22:43:06Z,4620,0
59.891,30.22358,59.91988,30.00934,REINBEK,REINBEK,Cargo,Cargo,2016-12-13T22:21:03Z,2016-12-13T23:31:05Z,12383,0
57.83239,11.60243,57.67102,11.84798,RESCUE 8-45,RESCUE 8-45,Tug,Tug,2016-12-19T14:53:04Z,2016-12-19T17:35:07Z,23139,0
57.98982,11.69722,57.9663,11.71332,RESCUE B. RASMUSSEN,RESCUE B. RASMUSSEN,Tug,Tug,2016-12-13T15:15:07Z,2016-12-20T13:45:05Z,2785,0
57.67097,11.84864,57.60181,11.82071,RESCUE LARS LINDFELT,RESCUE LARS LINDFELT,Tug,Tug,2016-12-15T11:09:06Z,2016-12-19T15:17:07Z,7877,0
57.70833,11.66626,57.77173,11.61879,RESCUE MARTA COLLIN,RESCUE MARTA COLLIN,Tug,Tug,2016-12-14T13:43:06Z,2016-12-19T14:05:05Z,7600,0
57.64902,11.785,57.60196,11.79115,RESCUER AMBULANCE,RESCUER AMBULANCE,Tug,Tug,2016-12-13T14:51:05Z,2016-12-20T02:49:04Z,5252,0
54.63648,19.95452,54.63348,19.92948,REUSHINKA,REUSHINKA,Tug,Tug,2016-12-13T22:43:02Z,2016-12-20T13:27:02Z,1648,0
57.70706,11.66257,57.66167,11.84152,RIVO,RIVO,High Special,High Special,2016-12-13T16:15:05Z,2016-12-20T10:25:07Z,11787,0
54.36628,18.65109,54.71562,18.99924,RIX STAR,RIX STAR,Cargo,Cargo,2016-12-14T14:03:02Z,2016-12-15T03:13:02Z,44920,0
54.79902,18.61501,54.79767,18.59298,RMS RAHM,RMS RAHM,Cargo,Cargo,2016-12-13T22:17:03Z,2016-12-19T18:17:15Z,1422,0
54.52952,18.55271,54.79571,18.94145,ROBIN WIND,ROBIN WIND,Cargo,Cargo,2016-12-17T07:51:06Z,2016-12-17T10:53:01Z,38788,0
57.60331,11.79288,57.64641,11.85747,RODSKAR GG430,RODSKAR GG430,Fishing,Fishing,2016-12-14T14:59:05Z,2016-12-19T17:47:05Z,6152,0
54.53025,18.55648,54.79797,18.95017,ROJAREK NAREE,ROJAREK NAREE,Cargo,Cargo,2016-12-16T18:17:07Z,2016-12-16T20:49:02Z,39124,0
54.53418,18.55674,54.38148,18.65195,ROMANKA,ROMANKA,Tanker,Tanker,2016-12-13T17:07:08Z,2016-12-19T19:23:02Z,18081,0
54.79979,18.4612,54.79697,18.41411,RONDO,RONDO,Fishing,Fishing,2016-12-13T23:35:07Z,2016-12-20T09:57:06Z,3038,0
57.74842,11.60546,57.7564,11.63917,ROSSO,ROSSO,Fishing,Fishing,2016-12-14T22:43:06Z,2016-12-20T13:59:05Z,2191,0
55.71199,21.12056,55.7247,20.80318,RUBYN,RUBYN,Cargo,Cargo,2016-12-15T06:59:06Z,2016-12-15T08:39:07Z,19951,0
59.92061,30.00674,59.8932,30.22755,RUTH,RUTH,Cargo,Cargo,2016-12-20T04:27:03Z,2016-12-20T05:53:04Z,12697,0
57.74839,11.60044,57.69485,11.60076,SAIBON LL1248,SAIBON LL1248,Fishing,Fishing,2016-12-13T15:25:07Z,2016-12-17T01:47:06Z,5960,0
55.72465,21.0983,55.73235,20.80828,SAKURA PRINCESS,SAKURA PRINCESS,Tanker,Tanker,2016-12-13T21:03:07Z,2016-12-14T14:57:06Z,18200,0
54.70612,20.46639,54.9636,20.31231,SAMUR-3,SAMUR-3,Cargo,Cargo,2016-12-18T10:29:02Z,2016-12-20T10:27:02Z,30317,0
55.67748,20.80192,55.73757,20.80615,SAN REMO,SAN REMO,Cargo,Cargo,2016-12-18T06:07:07Z,2016-12-18T22:29:06Z,6694,0
54.75603,18.96664,54.79984,18.8831,SANDETTIE,SANDETTIE,Cargo,Cargo,2016-12-14T13:09:01Z,2016-12-14T13:53:02Z,7249,0
54.53296,18.54213,54.79632,18.92299,SANTA URSULA,SANTA URSULA,Cargo,Cargo,2016-12-17T01:13:07Z,2016-12-18T09:19:03Z,38220,0
54.78776,18.4542,54.5842,18.51598,SAR 111261105,SAR 111261105,Tug,Tug,2016-12-20T11:19:07Z,2016-12-20T12:09:14Z,23006,0
57.60648,11.62348,57.73168,11.60382,SAR 111265121,SAR 111265121,Tug,Tug,2016-12-16T12:25:06Z,2016-12-16T12:29:05Z,13986,0
57.69372,11.81624,57.67995,11.77627,SAXKRAN NR 2,SAXKRAN NR 2,Pleasure,Pleasure,2016-12-13T14:43:05Z,2016-12-20T14:11:05Z,2830,0
55.73514,20.80557,55.89778,20.80771,SAXUM,SAXUM,Cargo,Cargo,2016-12-19T05:51:07Z,2016-12-20T01:45:05Z,18105,0
57.60386,11.61452,57.60133,11.663,SCANDINAVIA,SCANDINAVIA,Tanker,Tanker,2016-12-13T16:07:06Z,2016-12-17T11:59:05Z,2905,0
55.975,20.80167,55.99933,20.8425,SCF BALTICA,SCF BALTICA,Tanker,Tanker,2016-12-14T22:01:07Z,2016-12-14T22:25:06Z,3715,0
54.53351,18.53791,54.79988,18.89289,SCHUYLER TRADER,SCHUYLER TRADER,Cargo,Cargo,2016-12-16T04:17:07Z,2016-12-16T07:11:01Z,37437,0
57.68899,11.86933,57.61241,11.60169,SCORPIUS,SCORPIUS,Tanker,Tanker,2016-12-13T14:57:06Z,2016-12-16T16:21:06Z,18078,0
54.38098,18.65858,54.78376,18.93119,SCOTTISH VIKING,SCOTTISH VIKING,Passenger,Passenger,2016-12-14T15:07:02Z,2016-12-19T22:01:01Z,48163,0
54.97131,20.26957,54.96751,20.24726,SEA GOLF,SEA GOLF,Tug,Tug,2016-12-15T17:33:03Z,2016-12-16T01:09:03Z,1487,0
55.76583,20.80123,55.7899,20.84832,SEABASS,SEABASS,Tanker,Tanker,2016-12-20T09:03:06Z,2016-12-20T09:43:05Z,3984,0
57.77183,11.62087,57.79236,11.61003,SEACURE,SEACURE,Tug,Tug,2016-12-13T22:35:06Z,2016-12-18T11:15:04Z,2374,0
59.9202,30.0084,59.89133,30.23512,SEAGARD,SEAGARD,Cargo,Cargo,2016-12-20T04:45:03Z,2016-12-20T13:25:03Z,13057,0
55.84278,20.80504,55.73985,20.80001,SEALING,SEALING,Tanker,Tanker,2016-12-17T21:33:07Z,2016-12-19T01:05:06Z,11462,0
54.79584,18.92532,54.53382,18.53902,SEASTAR ENDURANCE,SEASTAR ENDURANCE,Cargo,Cargo,2016-12-15T17:33:02Z,2016-12-16T05:59:07Z,38332,0
54.50361,18.7412,54.79817,18.57817,SELENE PRAHM,SELENE PRAHM,Cargo,Cargo,2016-12-14T13:09:01Z,2016-12-15T10:41:07Z,34430,0
59.88133,30.2248,59.92129,30.00228,SERDOLIK,SERDOLIK,Cargo,Cargo,2016-12-16T11:17:04Z,2016-12-16T12:21:04Z,13195,0
57.60513,11.66143,57.60117,11.60028,SEROJA EMPAT,SEROJA EMPAT,Cargo,Cargo,2016-12-20T01:07:05Z,2016-12-20T06:55:04Z,3674,0
55.65615,20.80007,54.53174,18.52287,SERVAL,SERVAL,Tug,Tug,2016-12-13T20:33:07Z,2016-12-15T11:49:07Z,191579,0
54.79941,18.58417,54.7979,18.62156,SERWAL,SERWAL,Tug,Tug,2016-12-15T19:21:09Z,2016-12-17T07:23:07Z,2405,0
59.87712,30.22085,59.89158,30.22452,SESKAR,SESKAR,Tanker,Tanker,2016-12-13T23:33:04Z,2016-12-20T11:51:04Z,1623,0
59.92179,30.00008,59.89085,30.20834,SEVERNAYA ZEMLYA,SEVERNAYA ZEMLYA,Cargo,Cargo,2016-12-19T05:51:04Z,2016-12-19T07:21:04Z,12124,0
55.73307,20.80563,54.7969,18.89241,SILVER FJORD,SILVER FJORD,Cargo,Cargo,2016-12-15T05:15:06Z,2016-12-16T18:35:02Z,159948,0
57.60184,11.66485,57.61855,11.6053,SKAGENBANK,SKAGENBANK,Cargo,Cargo,2016-12-19T10:39:06Z,2016-12-19T20:19:05Z,4009,0
54.74171,18.99833,54.35928,18.66979,SM PRC 105,SM PRC 105,Tug,Tug,2016-12-15T15:15:02Z,2016-12-15T19:31:02Z,47564,0
54.39298,18.70853,54.39855,18.69272,SM PRC 108,SM PRC 108,Tug,Tug,2016-12-13T16:35:02Z,2016-12-19T22:59:10Z,1198,0
54.4085,18.74618,54.35704,18.67471,SM PRC 112,SM PRC 112,Tug,Tug,2016-12-13T14:21:01Z,2016-12-19T01:13:02Z,7368,0
55.66535,21.14668,55.73166,20.98437,SMILTE PILOT,SMILTE PILOT,Tug,Tug,2016-12-13T20:05:06Z,2016-12-20T14:11:06Z,12576,0
54.3954,18.71449,54.35934,18.67092,SMPRC110,SMPRC110,Tug,Tug,2016-12-13T21:29:02Z,2016-12-14T01:55:02Z,4909,0
57.68268,11.78994,57.68717,11.89484,SNOKEN,SNOKEN,Tug,Tug,2016-12-13T15:29:05Z,2016-12-19T17:47:05Z,6262,0
55.70477,21.12041,55.99681,20.95883,SOLL TENGIZ,SOLL TENGIZ,Tug,Tug,2016-12-14T19:09:07Z,2016-12-14T21:41:06Z,34042,0
59.91886,30.01456,59.88123,30.19385,SOLONG,SOLONG,Cargo,Cargo,2016-12-14T04:39:03Z,2016-12-14T05:29:04Z,10851,0
57.60496,11.62214,54.377,18.66217,SOLSTRAUM,SOLSTRAUM,Tanker,Tanker,2016-12-14T00:55:05Z,2016-12-20T09:05:02Z,566312,0
57.6,11.6285,57.60583,11.604,SOMERSET,SOMERSET,Cargo,Cargo,2016-12-13T22:13:06Z,2016-12-17T17:07:05Z,1599,0
54.79148,18.97016,54.40436,18.7189,SONGA SAPPHIRE,SONGA SAPPHIRE,Tanker,Tanker,2016-12-14T15:07:02Z,2016-12-20T02:05:07Z,46040,0
57.75781,11.61724,57.73979,11.60117,SONGVAR,SONGVAR,Fishing,Fishing,2016-12-18T17:17:06Z,2016-12-20T08:17:05Z,2222,0
54.38155,18.65981,54.666,19.82881,SORMOVSKIY-3055,SORMOVSKIY-3055,Cargo,Cargo,2016-12-14T00:37:02Z,2016-12-19T02:33:03Z,81892,0
59.92151,30.00067,59.89823,30.21825,SORMOVSKIY-3056,SORMOVSKIY-3056,Cargo,Cargo,2016-12-15T11:19:04Z,2016-12-20T03:37:04Z,12417,0
54.68464,20.16972,54.67362,19.80832,SORMOVSKIY-3058,SORMOVSKIY-3058,Cargo,Cargo,2016-12-15T14:23:03Z,2016-12-15T16:05:03Z,23292,0
54.65448,19.81667,54.67833,20.15065,SORMOVSKIY-3068,SORMOVSKIY-3068,Cargo,Cargo,2016-12-14T04:09:03Z,2016-12-15T22:37:02Z,21665,0
59.91908,30.01301,59.90698,30.22914,SORMOVSKIY-53,SORMOVSKIY-53,Cargo,Cargo,2016-12-19T19:11:12Z,2016-12-19T20:19:04Z,12136,0
54.65182,20.10053,54.66604,20.13423,SORMOVSKIY 3064,SORMOVSKIY 3064,Cargo,Cargo,2016-12-15T17:33:03Z,2016-12-17T02:55:03Z,2686,0
57.72117,11.98203,57.71519,11.96864,SOUND SURVEYOR,SOUND SURVEYOR,Tug,Tug,2016-12-19T15:55:04Z,2016-12-20T12:37:07Z,1038,0
55.6512,21.1573,55.77842,20.80602,SPANACO FIDELITY,SPANACO FIDELITY,Cargo,Cargo,2016-12-13T22:27:07Z,2016-12-20T04:05:06Z,26188,0
54.64687,20.06532,54.64695,19.91103,SPK-49150,SPK-49150,Tug,Tug,2016-12-15T13:15:03Z,2016-12-20T14:11:02Z,9938,0
54.67073,19.80245,54.6977,20.44164,STAR CURACAO,STAR CURACAO,Tanker,Tanker,2016-12-19T17:57:03Z,2016-12-19T20:53:03Z,41242,0
54.79363,18.90937,54.53376,18.52951,STAR ISFJORD,STAR ISFJORD,Cargo,Cargo,2016-12-19T14:29:01Z,2016-12-19T17:17:07Z,37881,0
54.67895,19.80058,54.68441,20.1685,STEENBANK,STEENBANK,Cargo,Cargo,2016-12-16T03:53:03Z,2016-12-16T05:45:02Z,23686,0
57.60287,11.64921,57.60569,11.61646,STENA DANICA,STENA DANICA,Passenger,Passenger,2016-12-13T18:25:05Z,2016-12-20T12:09:13Z,1978,0
54.74933,18.993,54.75467,18.84233,STENA FORERUNNER,STENA FORERUNNER,Cargo,Cargo,2016-12-18T09:15:02Z,2016-12-18T18:25:01Z,9698,0
57.69576,11.91391,57.60843,11.65863,STENA GERMANICA,STENA GERMANICA,Passenger,Passenger,2016-12-13T20:41:06Z,2016-12-19T21:41:05Z,18047,0
54.7941,18.68554,54.79579,18.72951,STENA SPIRIT,STENA SPIRIT,Passenger,Passenger,2016-12-15T07:17:02Z,2016-12-20T13:15:02Z,2828,0
57.74825,11.60071,57.60712,11.68237,STJARNVIK,STJARNVIK,Fishing,Fishing,2016-12-13T23:01:06Z,2016-12-14T01:17:05Z,16445,0
55.81528,20.80132,55.6901,21.13267,STRANDJA,STRANDJA,Cargo,Cargo,2016-12-18T16:21:06Z,2016-12-19T08:23:06Z,25002,0
54.66573,19.80199,54.68953,20.19683,STRATEGIC ENCOUNTER,STRATEGIC ENCOUNTER,Cargo,Cargo,2016-12-16T10:55:02Z,2016-12-18T11:35:03Z,25551,0
54.39882,18.69566,54.39823,18.67846,STRAZAK 6,STRAZAK 6,Tug,Tug,2016-12-13T20:11:02Z,2016-12-20T11:59:01Z,1117,0
59.89009,30.22249,59.92126,30.0027,SUEDEROOG,SUEDEROOG,Cargo,Cargo,2016-12-14T21:35:03Z,2016-12-14T22:45:04Z,12750,0
57.64451,11.85744,57.68281,11.87093,SUPPLIER,SUPPLIER,Tug,Tug,2016-12-15T03:13:06Z,2016-12-20T05:39:07Z,4339,0
54.51243,18.99559,54.45816,18.99596,SUULA,SUULA,Tanker,Tanker,2016-12-19T00:15:02Z,2016-12-20T04:15:02Z,6041,0
59.86956,30.21804,59.88957,30.20628,SVIR,SVIR,Tug,Tug,2016-12-13T15:41:03Z,2016-12-20T13:05:03Z,2322,0
57.68546,11.88824,57.91941,11.60269,SVITZER GAIA,SVITZER GAIA,Tug,Tug,2016-12-14T17:39:05Z,2016-12-18T20:35:05Z,31066,0
57.99729,11.70625,57.68777,11.89365,SVITZER ODEN,SVITZER ODEN,Tug,Tug,2016-12-14T14:05:07Z,2016-12-20T02:11:07Z,36200,0
54.70259,20.45842,54.63647,19.97089,SVYATITEL ALEKSIY,SVYATITEL ALEKSIY,Cargo,Cargo,2016-12-14T05:17:02Z,2016-12-15T15:35:03Z,32236,0
57.99751,11.75487,57.92087,11.60161,TAMINA SPIRIT,TAMINA SPIRIT,Unspecified,Unspecified,2016-12-14T14:33:06Z,2016-12-14T14:55:06Z,12438,0
54.38407,18.67285,54.79917,18.58893,TANAIS,TANAIS,Cargo,Cargo,2016-12-16T17:05:02Z,2016-12-17T16:45:07Z,46525,0
57.6184,11.76268,57.63183,11.61512,TANKSKAR,TANKSKAR,Tanker,Tanker,2016-12-13T14:41:06Z,2016-12-20T13:59:05Z,8922,0
54.69715,20.44045,54.65071,20.0924,TARNIKA,TARNIKA,Tug,Tug,2016-12-18T10:21:02Z,2016-12-18T18:49:02Z,22992,0
57.69841,11.91582,57.60015,11.79289,TARNTANK TEKNIK,TARNTANK TEKNIK,Pleasure,Pleasure,2016-12-13T17:01:05Z,2016-12-19T17:43:05Z,13163,0
54.65607,20.11686,54.63493,19.94788,TAYFUN,TAYFUN,Tug,Tug,2016-12-13T22:53:03Z,2016-12-20T13:35:03Z,11136,0
57.61285,11.80496,57.64536,11.85746,TENDER1,TENDER1,Cargo,Cargo,2016-12-14T13:09:05Z,2016-12-16T14:25:08Z,4784,0
57.60373,11.66461,57.60136,11.64774,TERNHAV,TERNHAV,Tanker,Tanker,2016-12-14T19:25:05Z,2016-12-17T05:31:05Z,1040,0
57.6063,11.66588,57.60388,11.61028,TERNVAG,TERNVAG,Tanker,Tanker,2016-12-17T14:45:05Z,2016-12-18T22:39:06Z,3327,0
54.7985,18.5849,54.38703,18.67157,THEA MARIEKE,THEA MARIEKE,Cargo,Cargo,2016-12-16T21:03:07Z,2016-12-20T08:11:02Z,46144,0
55.64466,21.16323,55.73053,20.81273,THOR INTEGRITY,THOR INTEGRITY,Cargo,Cargo,2016-12-16T18:39:06Z,2016-12-20T02:21:06Z,23982,0
57.69161,11.84332,57.61287,11.61852,THULELAND,THULELAND,Cargo,Cargo,2016-12-14T16:09:06Z,2016-12-14T16:55:05Z,16003,0
54.56009,18.8289,55.77374,20.84835,THUN GALAXY,THUN GALAXY,Tanker,Tanker,2016-12-13T14:21:01Z,2016-12-20T05:33:06Z,186374,0
57.60597,11.60637,57.60146,11.66438,THUN GLORY,THUN GLORY,Tanker,Tanker,2016-12-15T20:29:05Z,2016-12-18T21:47:05Z,3496,0
54.79758,18.7248,54.7994,18.70585,THURKUS,THURKUS,Cargo,Cargo,2016-12-15T07:27:02Z,2016-12-16T17:43:08Z,1233,0
55.01134,19.80005,54.70105,20.46251,TIDEWAY ROLLINGSTONE,TIDEWAY ROLLINGSTONE,Tug,Tug,2016-12-13T19:27:03Z,2016-12-19T14:23:02Z,54727,0
54.3857,18.6727,54.69705,18.99755,TINA,TINA,Cargo,Cargo,2016-12-13T17:23:02Z,2016-12-13T19:37:01Z,40514,0
57.67903,11.79129,57.71206,11.96474,TINDRA,TINDRA,Pleasure,Pleasure,2016-12-19T15:39:05Z,2016-12-19T16:47:07Z,10954,0
54.65936,19.81816,54.79914,18.85798,TOLLUND,TOLLUND,Cargo,Cargo,2016-12-13T14:47:03Z,2016-12-17T22:47:01Z,63651,0
57.65723,11.84635,57.68099,11.64799,TOOTIKI,TOOTIKI,Pleasure,Pleasure,2016-12-16T10:49:06Z,2016-12-16T12:55:06Z,12102,0
54.63799,19.99073,59.91403,30.2355,TORNADO,TORNADO,Tug,Tug,2016-12-13T21:39:03Z,2016-12-20T14:11:04Z,849769,0
54.52318,18.65707,59.91938,30.01281,TRANSOSPREY,TRANSOSPREY,Cargo,Cargo,2016-12-13T23:33:02Z,2016-12-20T01:17:04Z,908458,0
55.6464,21.16118,55.72625,20.80756,TRAVEBERG,TRAVEBERG,Cargo,Cargo,2016-12-14T13:09:06Z,2016-12-16T20:21:06Z,23905,0
57.9894,11.69768,57.99511,12.12745,TRELLE,TRELLE,Tug,Tug,2016-12-19T14:35:05Z,2016-12-19T21:39:07Z,25366,0
55.66799,21.14583,55.74459,20.8142,TRUE LOVE,TRUE LOVE,Cargo,Cargo,2016-12-15T14:49:07Z,2016-12-15T16:33:06Z,22480,0
54.40438,18.67282,54.52018,18.55266,TUCANA,TUCANA,Tug,Tug,2016-12-14T13:55:02Z,2016-12-20T12:55:07Z,15054,0
57.60143,11.79213,57.64564,11.85856,U/F ASTERIX,U/F ASTERIX,Tug,Tug,2016-12-20T09:59:05Z,2016-12-20T10:31:05Z,6317,0
54.67037,19.80454,54.70013,20.44705,UFA,UFA,Cargo,Cargo,2016-12-14T04:37:03Z,2016-12-19T06:35:02Z,41478,0
57.7582,11.61717,57.74605,11.64949,ULRIKA,ULRIKA,Passenger,Passenger,2016-12-13T14:39:05Z,2016-12-20T14:11:05Z,2348,0
57.99745,11.75748,54.65657,19.80649,UMAR1,UMAR1,Tanker,Tanker,2016-12-13T15:43:05Z,2016-12-20T12:11:03Z,619916,0
55.73171,20.97099,55.72464,20.80741,USOLIE,USOLIE,Cargo,Cargo,2016-12-14T13:09:06Z,2016-12-14T13:39:06Z,10284,0
55.85205,20.80153,55.72333,21.10133,UZAVA,UZAVA,Tanker,Tanker,2016-12-16T08:07:07Z,2016-12-18T19:03:06Z,23610,0
55.74679,21.05789,55.72749,21.07877,VAKARIS,VAKARIS,Tug,Tug,2016-12-15T10:09:07Z,2016-12-16T14:47:06Z,2516,0
59.9202,30.0074,59.87196,30.20652,VALENCIA EXPRESS,VALENCIA EXPRESS,Cargo,Cargo,2016-12-19T16:59:03Z,2016-12-19T18:37:03Z,12347,0
55.69943,20.85468,55.74867,20.8117,VANTAGE WAVE,VANTAGE WAVE,Cargo,Cargo,2016-12-13T14:31:07Z,2016-12-16T19:05:06Z,6108,0
59.91079,30.05415,59.92107,30.00313,VARVARA,VARVARA,Cargo,Cargo,2016-12-13T14:31:04Z,2016-12-13T14:43:04Z,3068,0
54.7957,18.87435,54.79045,18.68581,VASTANVIK,VASTANVIK,Cargo,Cargo,2016-12-19T06:31:01Z,2016-12-20T14:01:02Z,12114,0
57.6925,11.60487,57.68221,11.64838,VASTERLAND,VASTERLAND,Fishing,Fishing,2016-12-15T04:53:05Z,2016-12-20T08:51:04Z,2831,0
54.4008,18.67965,54.40273,18.73087,VEGA,VEGA,Tug,Tug,2016-12-13T20:39:02Z,2016-12-20T14:09:02Z,3326,0
57.60517,11.60167,57.601,11.63367,VENERE,VENERE,Tanker,Tanker,2016-12-19T17:57:05Z,2016-12-19T18:03:05Z,1964,0
54.53828,18.53192,55.68008,20.80454,VENTURA,VENTURA,Cargo,Cargo,2016-12-16T20:17:11Z,2016-12-19T09:49:06Z,192589,0
57.60239,11.72568,57.60025,11.79013,VERA C,VERA C,Fishing,Fishing,2016-12-13T19:51:06Z,2016-12-20T02:51:05Z,3852,0
57.74051,11.60408,57.70646,11.65993,VICTORIA,VICTORIA,Fishing,Fishing,2016-12-16T14:47:05Z,2016-12-16T15:55:05Z,5039,0
55.71218,20.82327,55.7247,20.80813,VICTORIA SEAWAYS,VICTORIA SEAWAYS,Passenger,Passenger,2016-12-13T16:13:06Z,2016-12-19T22:43:13Z,1686,0
55.70578,20.80083,55.74794,20.91629,VICTORIABORG,VICTORIABORG,Cargo,Cargo,2016-12-18T20:07:06Z,2016-12-20T14:11:06Z,8626,0
57.60588,11.60552,57.60384,11.64728,VICTORINE,VICTORINE,Cargo,Cargo,2016-12-19T20:07:05Z,2016-12-20T03:43:05Z,2501,0
59.87033,30.21295,59.921,30.00444,VIDFOSS,VIDFOSS,Cargo,Cargo,2016-12-15T12:01:03Z,2016-12-15T13:17:05Z,12937,0
57.69197,11.90122,57.69089,11.8768,VINGA SAFIR,VINGA SAFIR,Tanker,Tanker,2016-12-13T18:27:05Z,2016-12-20T00:59:06Z,1458,0
57.69187,11.606,57.68187,11.64819,VINGAFJORD GG-173,VINGAFJORD GG-173,Fishing,Fishing,2016-12-15T04:15:06Z,2016-12-15T07:59:05Z,2746,0
55.73016,21.0228,59.89089,30.21399,VINGAREN,VINGAREN,Cargo,Cargo,2016-12-13T14:31:07Z,2016-12-18T20:45:05Z,714171,0
57.601,11.66083,57.68817,11.86117,VIONA,VIONA,Cargo,Cargo,2016-12-20T04:21:06Z,2016-12-20T06:17:07Z,15382,0
54.40071,18.711,54.41041,18.78354,VIRTUS,VIRTUS,Tug,Tug,2016-12-13T14:21:01Z,2016-12-20T14:11:02Z,4823,0
55.6961,21.12966,55.72822,20.80976,VITA,VITA,Cargo,Cargo,2016-12-15T00:01:07Z,2016-12-15T01:33:07Z,20378,0
57.71008,11.69829,57.6995,11.66689,VIVI,VIVI,Passenger,Passenger,2016-12-15T22:05:05Z,2016-12-20T09:25:06Z,2208,0
54.69755,20.4414,54.69276,20.42078,VODOLAZ GRITSAY,VODOLAZ GRITSAY,Tug,Tug,2016-12-15T09:41:02Z,2016-12-16T15:09:03Z,1430,0
57.91729,11.60631,57.99287,11.75553,WAASMUNSTER,WAASMUNSTER,Tanker,Tanker,2016-12-18T10:31:04Z,2016-12-18T11:15:04Z,12185,0
57.62165,11.68249,57.64769,11.7103,WALTER HAMMANN,WALTER HAMMANN,Cargo,Cargo,2016-12-20T13:57:05Z,2016-12-20T14:11:05Z,3339,0
54.54486,18.58629,54.59966,18.78411,WDZYDZE,WDZYDZE,Tug,Tug,2016-12-20T10:23:14Z,2016-12-20T14:11:02Z,14148,0
54.52205,18.99997,54.79601,18.94512,WES JANINE,WES JANINE,Cargo,Cargo,2016-12-15T00:21:01Z,2016-12-15T20:01:02Z,30701,0
54.368,18.78052,54.39991,18.84552,WIATR,WIATR,Tug,Tug,2016-12-17T11:09:02Z,2016-12-20T12:11:02Z,5511,0
54.79876,18.57915,54.79908,18.62427,WIEBKE D,WIEBKE D,Cargo,Cargo,2016-12-15T21:37:08Z,2016-12-17T12:53:07Z,2896,0
54.79802,18.69257,54.79762,18.73323,WILSON BILBAO,WILSON BILBAO,Cargo,Cargo,2016-12-14T21:43:02Z,2016-12-15T20:39:07Z,2610,0
54.79882,18.90117,54.52887,18.52678,WILSON HOLLA,WILSON HOLLA,Cargo,Cargo,2016-12-19T17:11:02Z,2016-12-19T20:37:07Z,38524,0
54.53461,18.55151,55.73336,20.80246,WILSON SKY,WILSON SKY,Cargo,Cargo,2016-12-13T23:51:07Z,2016-12-15T20:17:06Z,195752,0
54.79984,18.65575,54.79668,18.67582,WILSON VOLOS,WILSON VOLOS,Cargo,Cargo,2016-12-15T21:07:02Z,2016-12-17T03:25:07Z,1335,0
57.68893,11.86944,57.60073,11.65717,WISBY WAVE,WISBY WAVE,Tanker,Tanker,2016-12-15T22:19:08Z,2016-12-15T23:15:06Z,16010,0
54.79817,18.44243,54.79896,18.42641,WLA-13O,WLA-13O,Fishing,Fishing,2016-12-13T22:45:07Z,2016-12-18T15:43:07Z,1032,0
54.69576,18.99412,54.79878,18.44359,WLA-196,WLA-196,Fishing,Fishing,2016-12-13T14:31:02Z,2016-12-20T07:21:06Z,37185,0
54.79696,18.41688,54.79816,18.4384,WLA-197,WLA-197,Fishing,Fishing,2016-12-15T03:03:07Z,2016-12-20T07:21:06Z,1387,0
54.63934,18.9948,54.79823,18.43291,WLA-207,WLA-207,Fishing,Fishing,2016-12-13T14:21:01Z,2016-12-19T06:49:07Z,40225,0
54.57332,18.93859,54.79713,18.41889,WLA-217,WLA-217,Fishing,Fishing,2016-12-13T14:21:01Z,2016-12-19T16:17:06Z,41703,0
54.79616,18.41702,54.79927,18.43267,WLA-254,WLA-254,Fishing,Fishing,2016-12-15T07:13:07Z,2016-12-20T07:13:07Z,1062,0
54.55234,18.8808,54.79715,18.42116,WLA-291,WLA-291,Fishing,Fishing,2016-12-13T14:21:01Z,2016-12-20T01:59:06Z,40224,0
54.79522,18.41769,54.79936,18.4416,WLA-295,WLA-295,Fishing,Fishing,2016-12-14T15:01:14Z,2016-12-14T23:49:07Z,1602,0
54.79535,18.41781,54.7978,18.4512,WLA-305,WLA-305,Fishing,Fishing,2016-12-15T07:09:07Z,2016-12-20T08:03:08Z,2160,0
54.79653,18.41913,54.79952,18.44073,WLA-307,WLA-307,Fishing,Fishing,2016-12-14T22:15:07Z,2016-12-18T09:43:07Z,1426,0
54.7964,18.41696,54.79814,18.43326,WLA-32,WLA-32,Fishing,Fishing,2016-12-14T17:23:07Z,2016-12-20T07:09:07Z,1064,0
54.79667,18.41583,54.7987,18.4369,WLA-39,WLA-39,Fishing,Fishing,2016-12-14T23:09:07Z,2016-12-20T05:35:06Z,1371,0
54.79625,18.41767,54.79975,18.44303,WLA-6,WLA-6,Fishing,Fishing,2016-12-15T07:21:07Z,2016-12-20T07:27:07Z,1673,0
54.6294,18.97191,54.79986,18.44491,WLA-65,WLA-65,Fishing,Fishing,2016-12-13T14:21:01Z,2016-12-20T07:15:13Z,38839,0
54.61477,18.89944,54.45722,18.97035,WLA-67,WLA-67,Fishing,Fishing,2016-12-13T14:21:01Z,2016-12-20T14:11:02Z,18126,0
54.79506,18.67023,54.52224,18.55906,WLA 108,WLA 108,Fishing,Fishing,2016-12-20T08:43:02Z,2016-12-20T11:09:15Z,31202,0
54.79625,18.41729,54.79849,18.43708,WLA 11,WLA 11,Fishing,Fishing,2016-12-15T07:15:07Z,2016-12-20T06:49:06Z,1294,0
54.79585,18.41673,54.79989,18.4425,WLA 116,WLA 116,Fishing,Fishing,2016-12-14T16:57:08Z,2016-12-20T07:07:06Z,1714,0
54.58397,18.99539,54.79799,18.93761,WLA 250,WLA 250,Fishing,Fishing,2016-12-13T19:11:02Z,2016-12-20T08:49:02Z,24113,0
54.60933,18.99534,54.79902,18.43582,WLA 253,WLA 253,Fishing,Fishing,2016-12-13T16:21:02Z,2016-12-20T06:37:06Z,41726,0
54.59704,18.99529,54.79974,18.44824,WLA 31,WLA 31,Fishing,Fishing,2016-12-13T19:17:02Z,2016-12-20T07:07:06Z,41804,0
54.59717,18.99263,54.79699,18.43064,WLA 51,WLA 51,Fishing,Fishing,2016-12-13T19:29:02Z,2016-12-20T06:47:06Z,42448,0
54.59487,18.84303,54.60221,18.80186,WLA 60,WLA 60,Fishing,Fishing,2016-12-13T14:21:01Z,2016-12-20T09:21:02Z,2778,0
54.79682,18.41658,54.79427,18.73017,WLA 80,WLA 80,Fishing,Fishing,2016-12-20T07:25:07Z,2016-12-20T14:11:02Z,20127,0
54.79991,18.44261,54.79596,18.41571,WLA182,WLA182,Fishing,Fishing,2016-12-13T19:15:07Z,2016-12-20T00:05:07Z,1781,0
59.92028,30.00681,59.87431,30.19686,WYBELSUM,WYBELSUM,Cargo,Cargo,2016-12-19T18:19:03Z,2016-12-19T20:09:04Z,11780,0
59.92039,30.00596,59.87026,30.21011,X-PRESS ETNA,X-PRESS ETNA,Cargo,Cargo,2016-12-19T17:55:03Z,2016-12-20T07:25:04Z,12692,0
55.74575,20.81299,55.72652,21.09255,XANTHIA,XANTHIA,Tanker,Tanker,2016-12-19T16:19:06Z,2016-12-19T17:41:06Z,17651,0
54.7992,18.89561,54.55201,18.81838,YAMAL KRECHET,YAMAL KRECHET,Cargo,Cargo,2016-12-20T12:47:02Z,2016-12-20T14:11:02Z,27962,0
57.65764,11.84423,57.70638,11.94301,YANIKI IV,YANIKI IV,Pleasure,Pleasure,2016-12-17T12:47:06Z,2016-12-17T14:01:08Z,8000,0
54.66139,19.8314,54.64884,19.82999,YASNYY,YASNYY,Tug,Tug,2016-12-16T04:03:03Z,2016-12-17T19:07:02Z,1400,0
57.64949,11.78894,57.65007,11.80927,YLVA,YLVA,Passenger,Passenger,2016-12-13T14:31:05Z,2016-12-20T14:11:05Z,1213,0
54.40174,18.99681,54.46707,18.9959,ZAG-21,ZAG-21,Fishing,Fishing,2016-12-13T18:37:01Z,2016-12-20T08:51:01Z,7273,0
54.42817,18.99248,54.46609,19,ZAG-27,ZAG-27,Tug,Tug,2016-12-13T17:57:02Z,2016-12-20T08:47:01Z,4249,0
54.35216,18.76325,54.46693,18.99714,ZAG 31,ZAG 31,Fishing,Fishing,2016-12-16T07:13:02Z,2016-12-20T08:45:01Z,19820,0
54.66117,19.80086,54.67798,19.80329,ZAMOSKVORECHYE,ZAMOSKVORECHYE,Cargo,Cargo,2016-12-15T10:37:02Z,2016-12-18T02:59:02Z,1878,0
59.87143,30.20755,59.88425,30.20741,ZANA,ZANA,Tanker,Tanker,2016-12-13T15:07:04Z,2016-12-19T23:27:04Z,1427,0
55.68582,20.80574,55.75275,20.80317,ZAPADNYY,ZAPADNYY,Tanker,Tanker,2016-12-18T11:45:06Z,2016-12-19T13:03:07Z,7452,0
54.52021,18.5516,54.79956,18.58205,ZAWISZA CZARNY,ZAWISZA CZARNY,Pleasure,Pleasure,2016-12-13T15:33:07Z,2016-12-18T23:33:07Z,31159,0
55.67759,20.80091,55.71679,21.10973,ZEALAND BEATRIX,ZEALAND BEATRIX,Cargo,Cargo,2016-12-14T13:21:07Z,2016-12-18T20:15:05Z,19859,0
59.86886,30.21872,59.92103,30.00384,ZENIT,ZENIT,Cargo,Cargo,2016-12-18T05:23:03Z,2016-12-19T13:53:03Z,13330,0
54.79633,18.90887,54.79931,18.53012,ZEUS,ZEUS,Tug,Tug,2016-12-19T09:21:03Z,2016-12-20T05:55:07Z,24307,0
54.40243,18.68169,54.52948,18.74288,ZODIAK,ZODIAK,Tug,Tug,2016-12-16T00:55:01Z,2016-12-20T14:11:02Z,14687,0
54.66072,19.80818,54.6959,20.43792,ZORKIY,ZORKIY,Tug,Tug,2016-12-17T19:45:03Z,2016-12-18T06:53:03Z,40719,0
